{"features":[{"geometry":{"coordinates":[[[[8.521824,47.433848],[8.525171,47.432604],[8.536576,47.433836],[8.538211,47.43437],[8.545023,47.438321],[8.548323,47.437554],[8.551316,47.432732],[8.551164,47.431129],[8.551598,47.429402],[8.557369,47.425686],[8.555068,47.422868],[8.556768,47.42038],[8.561717,47.418155],[8.567441,47.421424],[8.569259,47.422085],[8.569892,47.42185],[8.568838,47.417087],[8.573782,47.416659],[8.57776,47.412646],[8.579743,47.412745],[8.584448,47.410363],[8.587449,47.410491],[8.589748,47.409271],[8.588276,47.405836],[8.591149,47.406095],[8.593773,47.405781],[8.59299,47.404534],[8.595192,47.400852],[8.596496,47.400897],[8.598037,47.399907],[8.596145,47.39728],[8.595693,47.394608],[8.595926,47.39462],[8.595436,47.394042],[8.592817,47.388277],[8.593389,47.385242],[8.589871,47.373351],[8.591011,47.371954],[8.5938,47.371381],[8.598148,47.37146],[8.608118,47.372485],[8.611039,47.357241],[8.612892,47.355383],[8.607868,47.353047],[8.599421,47.352003],[8.594137,47.352402],[8.590458,47.351533],[8.589898,47.350286],[8.585934,47.348242],[8.581799,47.347311],[8.580467,47.347795],[8.577627,47.347986],[8.56951,47.346784],[8.568558,47.34715],[8.566751,47.348546],[8.562575,47.35048],[8.561448,47.350055],[8.560928,47.349363],[8.560705,47.349865],[8.560368,47.349836],[8.560721,47.34998],[8.558775,47.351692],[8.557893,47.351615],[8.55523,47.352536],[8.554911,47.352379],[8.553181,47.352555],[8.553281,47.35188],[8.553119,47.351888],[8.55289,47.352695],[8.550472,47.352863],[8.550338,47.353019],[8.550586,47.353211],[8.551445,47.353318],[8.5503,47.353324],[8.550619,47.354318],[8.547846,47.357806],[8.547151,47.357845],[8.547266,47.361757],[8.547267,47.361483],[8.546936,47.361432],[8.546752,47.36205],[8.547078,47.362092],[8.547236,47.361835],[8.547163,47.362016],[8.544816,47.365402],[8.544565,47.366094],[8.544372,47.366078],[8.544522,47.366166],[8.544268,47.366702],[8.543988,47.366885],[8.542428,47.366616],[8.542239,47.366346],[8.541031,47.366022],[8.541336,47.365332],[8.541124,47.365263],[8.540411,47.366025],[8.53983,47.365732],[8.539928,47.365508],[8.537272,47.364091],[8.537009,47.363552],[8.537395,47.363059],[8.53708,47.362418],[8.53602,47.361346],[8.536177,47.359264],[8.537183,47.359226],[8.537054,47.35902],[8.537317,47.358894],[8.536509,47.358998],[8.536322,47.358658],[8.535927,47.358546],[8.536167,47.357485],[8.53676,47.357294],[8.536508,47.355745],[8.535961,47.355193],[8.536169,47.354916],[8.535971,47.354808],[8.536089,47.354087],[8.535631,47.349871],[8.536082,47.349288],[8.536399,47.349503],[8.536301,47.350043],[8.536962,47.349562],[8.536095,47.349256],[8.53608,47.348865],[8.534967,47.3487],[8.535273,47.347039],[8.536774,47.347162],[8.536815,47.34697],[8.536013,47.346902],[8.53636,47.345947],[8.535932,47.34578],[8.536482,47.345763],[8.536875,47.345475],[8.536133,47.34535],[8.536648,47.345345],[8.53707,47.344331],[8.536693,47.344287],[8.536931,47.344228],[8.537277,47.342768],[8.536681,47.342577],[8.537733,47.341041],[8.538009,47.341091],[8.538137,47.340822],[8.538814,47.340949],[8.538682,47.340551],[8.53964,47.338264],[8.540192,47.338109],[8.540699,47.338622],[8.540687,47.33827],[8.540028,47.337945],[8.540495,47.337176],[8.540019,47.337028],[8.540117,47.336877],[8.54115,47.336926],[8.541872,47.336511],[8.541615,47.336326],[8.541792,47.336187],[8.541982,47.336494],[8.542347,47.336403],[8.542456,47.335906],[8.542887,47.335328],[8.543131,47.335324],[8.543256,47.334249],[8.543625,47.333847],[8.539489,47.33344],[8.538191,47.334018],[8.536359,47.33118],[8.533067,47.329672],[8.534041,47.327862],[8.526945,47.32479],[8.522313,47.32504],[8.521191,47.324421],[8.519436,47.322794],[8.507251,47.319832],[8.503118,47.319217],[8.502206,47.322573],[8.502272,47.324059],[8.501529,47.325739],[8.501009,47.331643],[8.50299,47.335749],[8.503517,47.337751],[8.502644,47.340668],[8.500182,47.342543],[8.50158,47.351837],[8.500295,47.353753],[8.487263,47.361075],[8.476486,47.3676],[8.476231,47.369181],[8.474029,47.371557],[8.47223,47.374478],[8.464745,47.377098],[8.462247,47.378358],[8.460574,47.379893],[8.45968,47.381539],[8.454135,47.386093],[8.455991,47.388571],[8.461157,47.391705],[8.467033,47.392876],[8.472501,47.395684],[8.468945,47.399665],[8.4699,47.401738],[8.477926,47.40215],[8.477656,47.407251],[8.473203,47.409811],[8.468822,47.413089],[8.46626,47.417108],[8.465997,47.417866],[8.474249,47.419524],[8.481923,47.424269],[8.484522,47.425423],[8.485473,47.43169],[8.494914,47.438156],[8.504322,47.441349],[8.506106,47.442462],[8.516074,47.437613],[8.518673,47.435251],[8.521824,47.433848]]]],"type":"MultiPolygon"},"id":110,"properties":{"name":"Zone 110","weight":2,"zone_id":110},"type":"Feature"},{"geometry":{"coordinates":[[[[8.449359,47.4665],[8.456287,47.464559],[8.465347,47.465306],[8.471246,47.46433],[8.473775,47.464422],[8.478527,47.46515],[8.482803,47.460044],[8.487635,47.457249],[8.504179,47.449875],[8.505803,47.447689],[8.506163,47.445547],[8.506106,47.442462],[8.504322,47.441349],[8.494914,47.438156],[8.485473,47.43169],[8.484522,47.425423],[8.481923,47.424269],[8.474249,47.419524],[8.465997,47.417866],[8.461584,47.419623],[8.458847,47.421375],[8.455493,47.422227],[8.449667,47.424834],[8.445514,47.427851],[8.443619,47.428065],[8.438234,47.429455],[8.426232,47.430966],[8.423248,47.431653],[8.419656,47.434227],[8.422512,47.44122],[8.422912,47.446372],[8.422134,47.449504],[8.419689,47.454201],[8.419889,47.455443],[8.419676,47.459604],[8.425709,47.466571],[8.427302,47.468917],[8.440579,47.469869],[8.449359,47.4665]]]],"type":"MultiPolygon"},"id":111,"properties":{"name":"Zone 111","weight":1,"zone_id":111},"type":"Feature"},{"geometry":{"coordinates":[[[[8.556831,47.537007],[8.559754,47.534947],[8.561553,47.530063],[8.563903,47.525942],[8.56589,47.523433],[8.568504,47.513078],[8.568092,47.512006],[8.567963,47.510215],[8.56865,47.508936],[8.569849,47.505563],[8.569887,47.504371],[8.572717,47.500909],[8.575397,47.495073],[8.574899,47.492274],[8.57605,47.488898],[8.575601,47.484936],[8.576296,47.480252],[8.568528,47.471317],[8.564421,47.468888],[8.553423,47.464189],[8.551763,47.463864],[8.548198,47.465097],[8.538711,47.472389],[8.5385,47.473716],[8.539378,47.481948],[8.530558,47.490808],[8.528736,47.491905],[8.522644,47.493574],[8.517371,47.488878],[8.513319,47.483297],[8.500146,47.482492],[8.496895,47.477113],[8.496271,47.476923],[8.49107,47.472694],[8.495566,47.463606],[8.490178,47.456116],[8.487635,47.457249],[8.482803,47.460044],[8.478527,47.46515],[8.473775,47.464422],[8.471246,47.46433],[8.465347,47.465306],[8.456287,47.464559],[8.449359,47.4665],[8.440579,47.469869],[8.427302,47.468917],[8.417625,47.479713],[8.414038,47.483134],[8.422441,47.489305],[8.430562,47.493879],[8.431659,47.495508],[8.435001,47.504038],[8.431927,47.509764],[8.46141,47.51637],[8.463328,47.518741],[8.4847,47.523662],[8.485735,47.52743],[8.490337,47.534199],[8.496118,47.53978],[8.505922,47.539016],[8.509902,47.537514],[8.522666,47.535702],[8.525198,47.535739],[8.52783,47.536552],[8.536744,47.540028],[8.540749,47.541906],[8.554843,47.538732],[8.556831,47.537007]]]],"type":"MultiPolygon"},"id":112,"properties":{"name":"Zone 112","weight":1,"zone_id":112},"type":"Feature"},{"geometry":{"coordinates":[[[[8.515832,47.631668],[8.519247,47.619719],[8.525579,47.603631],[8.524728,47.595148],[8.527561,47.593351],[8.533479,47.591107],[8.543879,47.588878],[8.547573,47.577188],[8.547377,47.576536],[8.558469,47.561749],[8.538942,47.554572],[8.540749,47.541906],[8.536744,47.540028],[8.52783,47.536552],[8.525198,47.535739],[8.522666,47.535702],[8.509902,47.537514],[8.505922,47.539016],[8.496118,47.53978],[8.493261,47.542886],[8.489115,47.546462],[8.470074,47.552177],[8.466727,47.552581],[8.460985,47.558892],[8.453545,47.56286],[8.446726,47.569876],[8.450083,47.571033],[8.456346,47.57255],[8.461598,47.572094],[8.464678,47.572393],[8.468892,47.573896],[8.476419,47.577843],[8.478852,47.578087],[8.483188,47.577217],[8.485231,47.57727],[8.486897,47.577792],[8.490831,47.580093],[8.494533,47.581177],[8.494028,47.582204],[8.492748,47.58367],[8.490253,47.586372],[8.488663,47.587717],[8.487297,47.587328],[8.483339,47.586831],[8.481864,47.58595],[8.48107,47.585114],[8.479545,47.585248],[8.475491,47.584438],[8.473741,47.584319],[8.470354,47.584537],[8.469263,47.583947],[8.468308,47.583824],[8.466793,47.58417],[8.464724,47.587915],[8.462679,47.587918],[8.462502,47.58835],[8.460408,47.588349],[8.460219,47.58959],[8.460431,47.589684],[8.460549,47.590994],[8.461091,47.592646],[8.460467,47.593294],[8.459889,47.594984],[8.459142,47.596027],[8.458031,47.596923],[8.45691,47.597349],[8.456416,47.59989],[8.456561,47.602333],[8.459251,47.602137],[8.463612,47.60235],[8.466392,47.603027],[8.468362,47.603885],[8.467963,47.604465],[8.46803,47.605436],[8.469976,47.605524],[8.470863,47.60654],[8.47127,47.606656],[8.471311,47.606964],[8.470522,47.607508],[8.47003,47.608266],[8.470222,47.608615],[8.473917,47.608527],[8.47502,47.607849],[8.475174,47.607982],[8.477949,47.610985],[8.478103,47.61197],[8.478437,47.612271],[8.478481,47.613227],[8.477828,47.613572],[8.47912,47.615253],[8.480143,47.615158],[8.483196,47.613801],[8.484115,47.614244],[8.484557,47.614805],[8.486961,47.614463],[8.488395,47.615136],[8.493139,47.6146],[8.500819,47.616573],[8.502007,47.616672],[8.50313,47.617363],[8.505313,47.617482],[8.505977,47.617274],[8.508034,47.617596],[8.507108,47.618322],[8.508803,47.618639],[8.508746,47.618845],[8.508204,47.618901],[8.507881,47.619793],[8.50812,47.62205],[8.507298,47.623874],[8.510921,47.623385],[8.51315,47.623391],[8.514448,47.623667],[8.515027,47.623524],[8.514938,47.624479],[8.512749,47.624873],[8.512652,47.625614],[8.513445,47.626842],[8.514079,47.626441],[8.515159,47.627128],[8.51476,47.627638],[8.514769,47.628294],[8.515725,47.628565],[8.515,47.629317],[8.514713,47.630139],[8.515078,47.631366],[8.515832,47.631668]]]],"type":"MultiPolygon"},"id":113,"properties":{"name":"Zone 113","weight":1,"zone_id":113},"type":"Feature"},{"geometry":{"coordinates":[[[[8.515832,47.631668],[8.516349,47.632046],[8.515666,47.632533],[8.515832,47.632979],[8.515575,47.633857],[8.517255,47.634335],[8.520764,47.634402],[8.521943,47.633463],[8.525679,47.631797],[8.529994,47.631811],[8.531101,47.632045],[8.531792,47.631991],[8.532723,47.631519],[8.534685,47.631373],[8.535593,47.631051],[8.536807,47.630971],[8.538268,47.631264],[8.539073,47.630986],[8.539429,47.628324],[8.538853,47.626409],[8.54294,47.627136],[8.544401,47.625237],[8.547622,47.625554],[8.548388,47.625216],[8.550524,47.625442],[8.552663,47.624862],[8.557947,47.624535],[8.558453,47.624002],[8.559348,47.621933],[8.55996,47.62122],[8.561428,47.620838],[8.561198,47.620148],[8.56211,47.619304],[8.562202,47.618464],[8.563023,47.6168],[8.569424,47.617263],[8.570785,47.61527],[8.570351,47.614846],[8.570395,47.614265],[8.571661,47.613984],[8.571676,47.613625],[8.571092,47.613446],[8.571338,47.612566],[8.574441,47.612374],[8.574651,47.611945],[8.574393,47.61158],[8.572813,47.610774],[8.57003,47.610728],[8.566522,47.609786],[8.566706,47.608039],[8.566545,47.606085],[8.566144,47.605165],[8.565149,47.604383],[8.563998,47.602799],[8.561802,47.601285],[8.562338,47.600326],[8.563988,47.598476],[8.566638,47.597145],[8.568746,47.597917],[8.571131,47.5982],[8.572167,47.59782],[8.574863,47.595507],[8.576871,47.59682],[8.582573,47.596137],[8.583289,47.597116],[8.584313,47.599784],[8.58778,47.60174],[8.590179,47.601207],[8.591316,47.602294],[8.5912,47.602889],[8.592015,47.604234],[8.592737,47.606155],[8.595638,47.605625],[8.596467,47.606542],[8.598925,47.607815],[8.604629,47.605583],[8.599549,47.598058],[8.594421,47.591972],[8.589612,47.588875],[8.588388,47.587499],[8.581295,47.581954],[8.573603,47.573746],[8.574301,47.566021],[8.575294,47.562856],[8.559807,47.561535],[8.558469,47.561749],[8.547377,47.576536],[8.547573,47.577188],[8.543879,47.588878],[8.533479,47.591107],[8.527561,47.593351],[8.524728,47.595148],[8.525579,47.603631],[8.519247,47.619719],[8.515832,47.631668]]]],"type":"MultiPolygon"},"id":114,"properties":{"name":"Zone 114","weight":1,"zone_id":114},"type":"Feature"},{"geometry":{"coordinates":[[[[8.716409,47.6432],[8.705117,47.623968],[8.701131,47.621607],[8.699009,47.616671],[8.67199,47.610724],[8.658878,47.60914],[8.655355,47.60729],[8.637577,47.600664],[8.629185,47.602544],[8.617731,47.606047],[8.604629,47.605583],[8.598925,47.607815],[8.60367,47.611356],[8.604818,47.613451],[8.605017,47.615644],[8.604323,47.617558],[8.600935,47.621641],[8.599135,47.624366],[8.597982,47.626876],[8.596902,47.630474],[8.596555,47.636218],[8.595291,47.639715],[8.595196,47.641723],[8.595767,47.643295],[8.597158,47.644148],[8.601316,47.645759],[8.602504,47.647151],[8.603119,47.6494],[8.603898,47.650957],[8.605686,47.6524],[8.607391,47.652576],[8.610123,47.65164],[8.612377,47.650071],[8.613474,47.64854],[8.614137,47.646838],[8.614352,47.645766],[8.61422,47.644674],[8.6135,47.643358],[8.612411,47.642419],[8.611325,47.641949],[8.608817,47.641456],[8.60532,47.641502],[8.603995,47.641118],[8.602903,47.639935],[8.603536,47.638737],[8.60539,47.637483],[8.607656,47.637086],[8.615217,47.63773],[8.619718,47.638854],[8.622508,47.640387],[8.624097,47.641804],[8.628437,47.648852],[8.628785,47.65014],[8.631268,47.650075],[8.636053,47.65684],[8.64839,47.663872],[8.659232,47.668926],[8.678834,47.66861],[8.679182,47.667803],[8.679145,47.666489],[8.678691,47.665675],[8.677593,47.665736],[8.677548,47.664246],[8.67782,47.662612],[8.678882,47.661592],[8.679452,47.66165],[8.679766,47.660886],[8.679396,47.659672],[8.68048,47.658223],[8.682263,47.657501],[8.683239,47.655754],[8.684735,47.655183],[8.684742,47.653495],[8.686821,47.653638],[8.688345,47.651268],[8.688163,47.650038],[8.690435,47.649502],[8.693032,47.648439],[8.693244,47.648113],[8.698381,47.647798],[8.698774,47.647103],[8.700429,47.647102],[8.700858,47.64664],[8.701155,47.645772],[8.702886,47.645133],[8.703601,47.644221],[8.70822,47.642397],[8.708708,47.641997],[8.710999,47.643678],[8.714168,47.644467],[8.714839,47.643182],[8.716409,47.6432]]]],"type":"MultiPolygon"},"id":115,"properties":{"name":"Zone 115","weight":1,"zone_id":115},"type":"Feature"},{"geometry":{"coordinates":[[[[8.677681,47.668755],[8.659232,47.668926],[8.64839,47.663872],[8.636053,47.65684],[8.631268,47.650075],[8.628785,47.65014],[8.628751,47.652011],[8.627821,47.653393],[8.625587,47.655152],[8.619555,47.65919],[8.61455,47.661456],[8.612754,47.660726],[8.608706,47.66335],[8.60796,47.664112],[8.607286,47.665338],[8.606001,47.669128],[8.606388,47.670243],[8.60798,47.67266],[8.609532,47.672126],[8.610599,47.675628],[8.613537,47.678617],[8.614288,47.678655],[8.614907,47.678211],[8.615775,47.678022],[8.616911,47.677012],[8.617072,47.676411],[8.617764,47.6757],[8.619237,47.675146],[8.620394,47.675268],[8.624364,47.676583],[8.626209,47.677858],[8.627062,47.679421],[8.627225,47.680471],[8.623924,47.68962],[8.624069,47.690762],[8.624866,47.691632],[8.625165,47.69175],[8.625731,47.691373],[8.626999,47.691931],[8.630691,47.692113],[8.637096,47.693169],[8.641215,47.694481],[8.642137,47.694557],[8.644575,47.694177],[8.646034,47.693686],[8.651353,47.690845],[8.65421,47.689017],[8.660219,47.68615],[8.663052,47.685405],[8.663426,47.685907],[8.669519,47.684936],[8.669489,47.683447],[8.669824,47.683277],[8.669548,47.68293],[8.669732,47.682796],[8.669613,47.682352],[8.669833,47.681599],[8.669522,47.680306],[8.668119,47.67714],[8.668482,47.67642],[8.669508,47.674741],[8.673541,47.672996],[8.676886,47.67192],[8.677122,47.671492],[8.677248,47.669806],[8.677681,47.668755]]]],"type":"MultiPolygon"},"id":116,"properties":{"name":"Zone 116","weight":1,"zone_id":116},"type":"Feature"},{"geometry":{"coordinates":[[[[8.401595,47.527354],[8.409224,47.521582],[8.412046,47.519967],[8.416467,47.516944],[8.431927,47.509764],[8.435001,47.504038],[8.431659,47.495508],[8.430562,47.493879],[8.422441,47.489305],[8.414038,47.483134],[8.417625,47.479713],[8.427302,47.468917],[8.425709,47.466571],[8.419676,47.459604],[8.419889,47.455443],[8.419689,47.454201],[8.422134,47.449504],[8.422912,47.446372],[8.422512,47.44122],[8.419656,47.434227],[8.415177,47.434008],[8.399174,47.437539],[8.393272,47.437478],[8.384733,47.43574],[8.384947,47.436216],[8.384835,47.436671],[8.383783,47.437381],[8.383678,47.438269],[8.384209,47.438458],[8.383606,47.439881],[8.381755,47.440493],[8.38186,47.442225],[8.380887,47.446375],[8.382026,47.446516],[8.381672,47.448759],[8.38667,47.449605],[8.385547,47.451597],[8.384801,47.453906],[8.384178,47.453851],[8.384285,47.454829],[8.382904,47.454947],[8.382699,47.456231],[8.380095,47.456081],[8.37924,47.457319],[8.378841,47.459184],[8.377825,47.459393],[8.372749,47.459114],[8.372036,47.461017],[8.370911,47.461734],[8.369396,47.463316],[8.36959,47.463824],[8.36931,47.465245],[8.368754,47.465298],[8.368723,47.46574],[8.367482,47.466099],[8.367218,47.465656],[8.365556,47.466194],[8.365811,47.467016],[8.365675,47.467579],[8.36772,47.468219],[8.367832,47.469199],[8.366449,47.469287],[8.366178,47.469512],[8.367714,47.470423],[8.37016,47.47053],[8.371851,47.470227],[8.37519,47.471198],[8.375162,47.471619],[8.374184,47.472984],[8.373985,47.474247],[8.373467,47.474841],[8.373979,47.478154],[8.374064,47.480429],[8.373197,47.481371],[8.363166,47.480802],[8.36187,47.485745],[8.362126,47.488237],[8.361946,47.488551],[8.362528,47.490586],[8.361772,47.491382],[8.360732,47.495564],[8.359985,47.496319],[8.35815,47.497472],[8.362073,47.499626],[8.362638,47.500155],[8.36288,47.501059],[8.359164,47.500821],[8.358466,47.501233],[8.357563,47.502503],[8.358538,47.503059],[8.358313,47.503509],[8.359026,47.504505],[8.358697,47.505395],[8.358952,47.50614],[8.361491,47.507835],[8.360727,47.508865],[8.360788,47.509585],[8.361122,47.510146],[8.363676,47.51099],[8.366139,47.510934],[8.366538,47.511632],[8.368116,47.511298],[8.368216,47.5115],[8.367106,47.512031],[8.367345,47.512293],[8.368451,47.512045],[8.369024,47.512261],[8.370404,47.511607],[8.371624,47.511878],[8.37376,47.511102],[8.37459,47.512254],[8.37699,47.512493],[8.377525,47.513062],[8.378698,47.513722],[8.379509,47.514913],[8.379154,47.515916],[8.380248,47.516048],[8.380453,47.518484],[8.380304,47.519963],[8.380975,47.521889],[8.381503,47.525567],[8.384104,47.528256],[8.385077,47.528727],[8.386726,47.528944],[8.389934,47.527391],[8.389087,47.52639],[8.390719,47.526349],[8.392204,47.525315],[8.393224,47.525778],[8.395537,47.528296],[8.395014,47.529055],[8.394736,47.531517],[8.395506,47.532126],[8.397711,47.532741],[8.401595,47.527354]]]],"type":"MultiPolygon"},"id":117,"properties":{"name":"Zone 117","weight":1,"zone_id":117},"type":"Feature"},{"geometry":{"coordinates":[[[[8.446726,47.569876],[8.453545,47.56286],[8.460985,47.558892],[8.466727,47.552581],[8.470074,47.552177],[8.489115,47.546462],[8.493261,47.542886],[8.496118,47.53978],[8.490337,47.534199],[8.485735,47.52743],[8.4847,47.523662],[8.463328,47.518741],[8.46141,47.51637],[8.431927,47.509764],[8.416467,47.516944],[8.412046,47.519967],[8.409224,47.521582],[8.401595,47.527354],[8.397711,47.532741],[8.398246,47.532627],[8.398291,47.53287],[8.400353,47.533315],[8.40379,47.533535],[8.404289,47.534335],[8.404046,47.535105],[8.402277,47.537336],[8.401228,47.538042],[8.401324,47.539128],[8.4009,47.540067],[8.401513,47.540094],[8.403229,47.538554],[8.404134,47.538283],[8.404016,47.539274],[8.405569,47.539618],[8.404772,47.540193],[8.405904,47.540362],[8.404997,47.541904],[8.40642,47.542076],[8.406796,47.541724],[8.407396,47.543549],[8.408242,47.543805],[8.408653,47.543507],[8.408581,47.543914],[8.411048,47.546165],[8.411538,47.546175],[8.411633,47.545771],[8.412467,47.545786],[8.412705,47.546335],[8.417161,47.546],[8.414936,47.548365],[8.415363,47.549395],[8.416733,47.550261],[8.415492,47.550953],[8.414496,47.55195],[8.41469,47.553009],[8.414317,47.553882],[8.415503,47.555725],[8.416249,47.557323],[8.416191,47.557876],[8.417567,47.558502],[8.417758,47.559108],[8.417433,47.560058],[8.417699,47.560657],[8.416745,47.56094],[8.418331,47.563918],[8.418219,47.564537],[8.418667,47.565229],[8.416473,47.565687],[8.416049,47.56559],[8.415297,47.565894],[8.416772,47.567532],[8.4203,47.569638],[8.428848,47.566979],[8.431352,47.566663],[8.433458,47.566697],[8.438588,47.567402],[8.446726,47.569876]]]],"type":"MultiPolygon"},"id":118,"properties":{"name":"Zone 118","weight":1,"zone_id":118},"type":"Feature"},{"geometry":{"coordinates":[[[[8.808142,47.460589],[8.806298,47.45969],[8.802295,47.459571],[8.792652,47.457245],[8.769971,47.464295],[8.759455,47.45483],[8.749218,47.464083],[8.741063,47.469963],[8.723355,47.462827],[8.716612,47.465328],[8.704922,47.46425],[8.699771,47.465282],[8.69276,47.473765],[8.689791,47.475722],[8.686524,47.478452],[8.681101,47.480094],[8.667459,47.487274],[8.662731,47.490455],[8.65378,47.491659],[8.652961,47.492847],[8.660443,47.505243],[8.661015,47.506658],[8.666032,47.51189],[8.666639,47.514831],[8.68233,47.526297],[8.683329,47.52674],[8.689314,47.525382],[8.694284,47.525],[8.696623,47.522644],[8.705754,47.519141],[8.713624,47.521709],[8.722459,47.525648],[8.737394,47.521689],[8.739239,47.527167],[8.742955,47.529945],[8.752106,47.539119],[8.759039,47.541385],[8.764213,47.54131],[8.766189,47.540707],[8.767736,47.538579],[8.763934,47.528266],[8.767342,47.522309],[8.771078,47.519105],[8.774468,47.517287],[8.776279,47.514775],[8.778433,47.513984],[8.786058,47.513048],[8.788383,47.512385],[8.780802,47.503291],[8.782167,47.494384],[8.781144,47.492746],[8.790033,47.48629],[8.793539,47.486286],[8.802391,47.481167],[8.810642,47.468929],[8.808142,47.460589]]]],"type":"MultiPolygon"},"id":120,"properties":{"name":"Zone 120","weight":2,"zone_id":120},"type":"Feature"},{"geometry":{"coordinates":[[[[8.548198,47.465097],[8.551763,47.463864],[8.553423,47.464189],[8.564421,47.468888],[8.568528,47.471317],[8.576296,47.480252],[8.583483,47.477751],[8.58902,47.47285],[8.604292,47.465761],[8.613249,47.46573],[8.613544,47.46512],[8.613583,47.463949],[8.617378,47.456915],[8.624375,47.451953],[8.629656,47.449434],[8.630904,47.449137],[8.640658,47.449875],[8.643733,47.441532],[8.645554,47.440173],[8.647382,47.437315],[8.654493,47.434536],[8.655763,47.421526],[8.662914,47.418008],[8.665597,47.416376],[8.665414,47.414973],[8.663628,47.409815],[8.662585,47.403883],[8.666192,47.399546],[8.666014,47.397442],[8.663929,47.392888],[8.670534,47.388172],[8.673044,47.387475],[8.675747,47.385962],[8.676415,47.383343],[8.681624,47.382861],[8.684031,47.383605],[8.687512,47.378681],[8.684518,47.37636],[8.680133,47.377314],[8.678806,47.377065],[8.6703,47.37097],[8.668369,47.370702],[8.666829,47.371574],[8.666512,47.371452],[8.66596,47.372028],[8.665077,47.372101],[8.665072,47.37255],[8.664583,47.372899],[8.664053,47.372846],[8.663713,47.373247],[8.663184,47.373234],[8.662519,47.373615],[8.660878,47.373742],[8.656641,47.372456],[8.655768,47.372769],[8.6554,47.372625],[8.655314,47.372255],[8.653262,47.371245],[8.653159,47.370656],[8.653398,47.369831],[8.6538,47.369329],[8.653897,47.368743],[8.654581,47.368014],[8.653278,47.368267],[8.652284,47.367653],[8.652349,47.367265],[8.653075,47.366794],[8.652541,47.365766],[8.65269,47.364668],[8.652502,47.362846],[8.653852,47.360721],[8.658656,47.356419],[8.650838,47.353082],[8.651119,47.348057],[8.652155,47.347667],[8.659886,47.336352],[8.642953,47.333858],[8.641189,47.334616],[8.636408,47.338156],[8.634822,47.340871],[8.633729,47.341356],[8.630439,47.346508],[8.626264,47.349638],[8.619817,47.353544],[8.615063,47.355251],[8.612892,47.355383],[8.611039,47.357241],[8.608118,47.372485],[8.598148,47.37146],[8.5938,47.371381],[8.591011,47.371954],[8.589871,47.373351],[8.593389,47.385242],[8.592817,47.388277],[8.595436,47.394042],[8.595926,47.39462],[8.595693,47.394608],[8.596145,47.39728],[8.598037,47.399907],[8.596496,47.400897],[8.595192,47.400852],[8.59299,47.404534],[8.593773,47.405781],[8.591149,47.406095],[8.588276,47.405836],[8.589748,47.409271],[8.587449,47.410491],[8.584448,47.410363],[8.579743,47.412745],[8.57776,47.412646],[8.573782,47.416659],[8.568838,47.417087],[8.569892,47.42185],[8.569259,47.422085],[8.567441,47.421424],[8.561717,47.418155],[8.556768,47.42038],[8.555068,47.422868],[8.557369,47.425686],[8.551598,47.429402],[8.551164,47.431129],[8.551316,47.432732],[8.548323,47.437554],[8.545023,47.438321],[8.538211,47.43437],[8.536576,47.433836],[8.525171,47.432604],[8.518673,47.435251],[8.516074,47.437613],[8.506106,47.442462],[8.506163,47.445547],[8.505803,47.447689],[8.504179,47.449875],[8.490178,47.456116],[8.495566,47.463606],[8.49107,47.472694],[8.496271,47.476923],[8.496895,47.477113],[8.500146,47.482492],[8.513319,47.483297],[8.517371,47.488878],[8.522644,47.493574],[8.528736,47.491905],[8.530558,47.490808],[8.539378,47.481948],[8.5385,47.473716],[8.538711,47.472389],[8.548198,47.465097]]]],"type":"MultiPolygon"},"id":121,"properties":{"name":"Zone 121","weight":1,"zone_id":121},"type":"Feature"},{"geometry":{"coordinates":[[[[8.613249,47.46573],[8.615584,47.46974],[8.647776,47.482901],[8.65378,47.491659],[8.662731,47.490455],[8.667459,47.487274],[8.681101,47.480094],[8.686524,47.478452],[8.689791,47.475722],[8.69276,47.473765],[8.699771,47.465282],[8.704922,47.46425],[8.716612,47.465328],[8.723355,47.462827],[8.741063,47.469963],[8.749218,47.464083],[8.759455,47.45483],[8.759548,47.453639],[8.757845,47.451212],[8.751328,47.445991],[8.747934,47.439733],[8.745536,47.43774],[8.74704,47.436309],[8.748069,47.419003],[8.752454,47.417967],[8.754052,47.41392],[8.74977,47.404575],[8.748847,47.403684],[8.74562,47.402918],[8.739477,47.404267],[8.727573,47.400242],[8.721328,47.395348],[8.714491,47.395405],[8.709687,47.39591],[8.703265,47.400004],[8.702394,47.400292],[8.695773,47.400017],[8.692421,47.401014],[8.691783,47.401696],[8.684768,47.415546],[8.679407,47.417086],[8.670909,47.41767],[8.665597,47.416376],[8.662914,47.418008],[8.655763,47.421526],[8.654493,47.434536],[8.647382,47.437315],[8.645554,47.440173],[8.643733,47.441532],[8.640658,47.449875],[8.630904,47.449137],[8.629656,47.449434],[8.624375,47.451953],[8.617378,47.456915],[8.613583,47.463949],[8.613544,47.46512],[8.613249,47.46573]]]],"type":"MultiPolygon"},"id":122,"properties":{"name":"Zone 122","weight":1,"zone_id":122},"type":"Feature"},{"geometry":{"coordinates":[[[[8.540749,47.541906],[8.538942,47.554572],[8.558469,47.561749],[8.559807,47.561535],[8.575294,47.562856],[8.580083,47.561532],[8.582224,47.560631],[8.584625,47.558826],[8.588758,47.550122],[8.590955,47.547607],[8.599752,47.542997],[8.603366,47.538848],[8.605235,47.536008],[8.638024,47.536701],[8.639839,47.536408],[8.641338,47.535881],[8.652265,47.538831],[8.64912,47.56219],[8.659304,47.564221],[8.664074,47.562997],[8.669225,47.562907],[8.683556,47.553128],[8.683103,47.552272],[8.689264,47.541453],[8.698341,47.537647],[8.697268,47.529035],[8.694284,47.525],[8.689314,47.525382],[8.683329,47.52674],[8.68233,47.526297],[8.666639,47.514831],[8.666032,47.51189],[8.661015,47.506658],[8.660443,47.505243],[8.652961,47.492847],[8.65378,47.491659],[8.647776,47.482901],[8.615584,47.46974],[8.613249,47.46573],[8.604292,47.465761],[8.58902,47.47285],[8.583483,47.477751],[8.576296,47.480252],[8.575601,47.484936],[8.57605,47.488898],[8.574899,47.492274],[8.575397,47.495073],[8.572717,47.500909],[8.569887,47.504371],[8.569849,47.505563],[8.56865,47.508936],[8.567963,47.510215],[8.568092,47.512006],[8.568504,47.513078],[8.56589,47.523433],[8.563903,47.525942],[8.561553,47.530063],[8.559754,47.534947],[8.556831,47.537007],[8.554843,47.538732],[8.540749,47.541906]]]],"type":"MultiPolygon"},"id":123,"properties":{"name":"Zone 123","weight":1,"zone_id":123},"type":"Feature"},{"geometry":{"coordinates":[[[[8.637577,47.600664],[8.639398,47.598422],[8.656575,47.587428],[8.65694,47.586231],[8.659304,47.564221],[8.64912,47.56219],[8.652265,47.538831],[8.641338,47.535881],[8.639839,47.536408],[8.638024,47.536701],[8.605235,47.536008],[8.603366,47.538848],[8.599752,47.542997],[8.590955,47.547607],[8.588758,47.550122],[8.584625,47.558826],[8.582224,47.560631],[8.580083,47.561532],[8.575294,47.562856],[8.574301,47.566021],[8.573603,47.573746],[8.581295,47.581954],[8.588388,47.587499],[8.589612,47.588875],[8.594421,47.591972],[8.599549,47.598058],[8.604629,47.605583],[8.617731,47.606047],[8.629185,47.602544],[8.637577,47.600664]]]],"type":"MultiPolygon"},"id":124,"properties":{"name":"Zone 124","weight":1,"zone_id":124},"type":"Feature"},{"geometry":{"coordinates":[[[[8.648376,47.307111],[8.645592,47.308413],[8.64133,47.309519],[8.635804,47.310377],[8.626309,47.316123],[8.631175,47.322571],[8.641189,47.334616],[8.642953,47.333858],[8.659886,47.336352],[8.652155,47.347667],[8.651119,47.348057],[8.650838,47.353082],[8.658656,47.356419],[8.660802,47.35438],[8.663854,47.353802],[8.663711,47.353563],[8.663944,47.352906],[8.665308,47.350629],[8.666056,47.349988],[8.666065,47.349566],[8.668453,47.347388],[8.670604,47.346531],[8.673068,47.346275],[8.674593,47.345642],[8.675501,47.345719],[8.67561,47.345034],[8.676061,47.344819],[8.678041,47.342228],[8.67864,47.340275],[8.679094,47.340325],[8.678871,47.340189],[8.681192,47.338955],[8.682636,47.337553],[8.682748,47.336531],[8.683615,47.335549],[8.684781,47.334574],[8.685502,47.334473],[8.685045,47.334015],[8.685647,47.332942],[8.685722,47.3318],[8.68618,47.331177],[8.687751,47.330495],[8.687638,47.329993],[8.689191,47.327704],[8.687301,47.325186],[8.677705,47.32544],[8.648376,47.307111]]],[[[8.684518,47.37636],[8.687512,47.378681],[8.684031,47.383605],[8.681624,47.382861],[8.676415,47.383343],[8.675747,47.385962],[8.673044,47.387475],[8.670534,47.388172],[8.663929,47.392888],[8.666014,47.397442],[8.666192,47.399546],[8.662585,47.403883],[8.663628,47.409815],[8.665414,47.414973],[8.665597,47.416376],[8.670909,47.41767],[8.679407,47.417086],[8.684768,47.415546],[8.691783,47.401696],[8.692421,47.401014],[8.695773,47.400017],[8.702394,47.400292],[8.703265,47.400004],[8.709687,47.39591],[8.714491,47.395405],[8.721328,47.395348],[8.731107,47.38748],[8.73148,47.38685],[8.7234,47.3822],[8.715782,47.371964],[8.703975,47.372971],[8.700406,47.361422],[8.698543,47.358604],[8.694579,47.357362],[8.686357,47.355777],[8.685797,47.356125],[8.685029,47.357114],[8.684614,47.358255],[8.684384,47.358363],[8.684608,47.358628],[8.684394,47.359309],[8.683244,47.359784],[8.68267,47.360408],[8.681842,47.360559],[8.681901,47.360754],[8.682223,47.360662],[8.682257,47.361087],[8.681417,47.36193],[8.68026,47.362719],[8.67552,47.363566],[8.675137,47.363978],[8.675464,47.364208],[8.67508,47.364046],[8.67503,47.364411],[8.674398,47.364973],[8.673867,47.365104],[8.671259,47.367002],[8.668983,47.369822],[8.669078,47.370058],[8.668369,47.370702],[8.6703,47.37097],[8.678806,47.377065],[8.680133,47.377314],[8.684518,47.37636]]]],"type":"MultiPolygon"},"id":130,"properties":{"name":"Zone 130","weight":1,"zone_id":130},"type":"Feature"},{"geometry":{"coordinates":[[[[8.74015,47.316194],[8.738228,47.317195],[8.728116,47.326105],[8.727505,47.326404],[8.700621,47.314089],[8.691824,47.319191],[8.687301,47.325186],[8.689191,47.327704],[8.689695,47.326418],[8.689517,47.325074],[8.689783,47.32433],[8.690957,47.323746],[8.69013,47.322803],[8.690254,47.322547],[8.692263,47.321451],[8.696431,47.321175],[8.698169,47.322125],[8.698264,47.322648],[8.69762,47.323412],[8.697705,47.32386],[8.698231,47.324416],[8.70008,47.325296],[8.700427,47.3266],[8.701577,47.32656],[8.703928,47.325741],[8.705776,47.326653],[8.707412,47.328887],[8.707462,47.330581],[8.707773,47.330625],[8.707585,47.330747],[8.707854,47.331408],[8.70742,47.332979],[8.70612,47.3341],[8.70249,47.335139],[8.697909,47.337422],[8.696355,47.337439],[8.695557,47.337761],[8.691594,47.340871],[8.691549,47.341326],[8.690816,47.342092],[8.690569,47.343297],[8.69024,47.34328],[8.690443,47.343419],[8.689795,47.345053],[8.69001,47.345629],[8.689736,47.34616],[8.689946,47.346633],[8.689822,47.347424],[8.690229,47.34903],[8.689719,47.349813],[8.689819,47.350343],[8.688777,47.351287],[8.689507,47.35183],[8.689438,47.352162],[8.688588,47.353496],[8.686357,47.355777],[8.694579,47.357362],[8.698543,47.358604],[8.700406,47.361422],[8.703975,47.372971],[8.715782,47.371964],[8.7234,47.3822],[8.73148,47.38685],[8.734803,47.385094],[8.735393,47.381566],[8.74639,47.372212],[8.755222,47.371871],[8.75597,47.37005],[8.755273,47.368626],[8.748938,47.351382],[8.75189,47.348028],[8.75224,47.342854],[8.7525,47.342489],[8.753444,47.334747],[8.756365,47.330903],[8.741543,47.317057],[8.74015,47.316194]]]],"type":"MultiPolygon"},"id":131,"properties":{"name":"Zone 131","weight":1,"zone_id":131},"type":"Feature"},{"geometry":{"coordinates":[[[[8.771458,47.353376],[8.773196,47.350802],[8.774456,47.350004],[8.773714,47.349257],[8.773564,47.348661],[8.773713,47.348128],[8.774697,47.34683],[8.774453,47.346383],[8.774836,47.344859],[8.775207,47.344574],[8.775265,47.34413],[8.77512,47.341905],[8.775663,47.341236],[8.776656,47.340602],[8.77846,47.340611],[8.779163,47.341493],[8.782225,47.340885],[8.783454,47.340935],[8.784232,47.341167],[8.785197,47.341869],[8.786154,47.34211],[8.788449,47.341572],[8.789818,47.341592],[8.790933,47.341908],[8.790926,47.342425],[8.789929,47.342511],[8.78972,47.342798],[8.790565,47.343386],[8.79681,47.340593],[8.806166,47.338327],[8.809497,47.339268],[8.811674,47.340688],[8.828531,47.338474],[8.828636,47.336897],[8.832666,47.333536],[8.836507,47.33237],[8.83769,47.331018],[8.847659,47.322408],[8.840154,47.315399],[8.835464,47.314267],[8.834234,47.314299],[8.83005,47.313561],[8.821635,47.314703],[8.814062,47.317542],[8.810634,47.316817],[8.802225,47.306427],[8.802625,47.305222],[8.8073,47.301806],[8.813039,47.299191],[8.810682,47.294088],[8.807556,47.289703],[8.80717,47.279906],[8.797161,47.271139],[8.789464,47.271785],[8.787735,47.281017],[8.786062,47.285844],[8.772472,47.287288],[8.766158,47.290524],[8.763957,47.292184],[8.758793,47.292991],[8.748959,47.293117],[8.740709,47.291042],[8.738307,47.294783],[8.735841,47.302065],[8.735814,47.30261],[8.74015,47.316194],[8.741543,47.317057],[8.756365,47.330903],[8.753444,47.334747],[8.7525,47.342489],[8.75224,47.342854],[8.75189,47.348028],[8.769653,47.353321],[8.771458,47.353376]]]],"type":"MultiPolygon"},"id":132,"properties":{"name":"Zone 132","weight":1,"zone_id":132},"type":"Feature"},{"geometry":{"coordinates":[[[[8.892142,47.319019],[8.89253,47.300683],[8.890742,47.299134],[8.884844,47.28967],[8.872894,47.288706],[8.86957,47.28638],[8.865072,47.284469],[8.851716,47.281549],[8.846881,47.284853],[8.841753,47.287321],[8.839211,47.282947],[8.823976,47.280088],[8.823858,47.275549],[8.825008,47.272903],[8.832014,47.271454],[8.838209,47.268966],[8.834974,47.265769],[8.834323,47.254912],[8.827868,47.251478],[8.820177,47.25422],[8.815611,47.252655],[8.807053,47.25205],[8.803031,47.250672],[8.796502,47.245822],[8.799803,47.239762],[8.796938,47.239664],[8.795624,47.238858],[8.79403,47.239068],[8.792927,47.238671],[8.791789,47.237627],[8.790871,47.236205],[8.788348,47.23547],[8.787396,47.234263],[8.785984,47.234194],[8.784235,47.234877],[8.781961,47.235202],[8.780914,47.234569],[8.779304,47.234328],[8.778335,47.233828],[8.77852,47.233632],[8.777885,47.233769],[8.777319,47.233586],[8.777273,47.233918],[8.777012,47.233858],[8.777147,47.233995],[8.776862,47.234122],[8.775785,47.234092],[8.774681,47.234491],[8.771587,47.234327],[8.770698,47.23618],[8.756779,47.244452],[8.753168,47.243873],[8.749107,47.244554],[8.747429,47.245166],[8.738587,47.247043],[8.736378,47.249735],[8.745839,47.258005],[8.750225,47.260268],[8.753987,47.261645],[8.757021,47.263277],[8.761056,47.263813],[8.767476,47.265443],[8.776083,47.266607],[8.781645,47.267908],[8.783789,47.269273],[8.789464,47.271785],[8.797161,47.271139],[8.80717,47.279906],[8.807556,47.289703],[8.810682,47.294088],[8.813039,47.299191],[8.8073,47.301806],[8.802625,47.305222],[8.802225,47.306427],[8.810634,47.316817],[8.814062,47.317542],[8.821635,47.314703],[8.83005,47.313561],[8.834234,47.314299],[8.835464,47.314267],[8.840154,47.315399],[8.847659,47.322408],[8.852819,47.323511],[8.870956,47.323343],[8.886772,47.328572],[8.891191,47.323427],[8.892142,47.319019]]],[[[8.782814,47.217884],[8.783177,47.217479],[8.780795,47.216377],[8.779061,47.216096],[8.77781,47.216245],[8.776479,47.215618],[8.775285,47.2161],[8.776285,47.216476],[8.776274,47.216811],[8.775773,47.217184],[8.776778,47.217806],[8.776532,47.218079],[8.776752,47.218165],[8.776984,47.21788],[8.781421,47.218642],[8.782337,47.218404],[8.782814,47.217884]]]],"type":"MultiPolygon"},"id":133,"properties":{"name":"Zone 133","weight":1,"zone_id":133},"type":"Feature"},{"geometry":{"coordinates":[[[[8.957059,47.304407],[8.955447,47.303031],[8.954958,47.301774],[8.953215,47.298778],[8.952512,47.298798],[8.952001,47.297748],[8.952052,47.29646],[8.950955,47.295213],[8.949144,47.294372],[8.94862,47.293329],[8.94901,47.29211],[8.944715,47.290675],[8.943578,47.290747],[8.94303,47.291178],[8.940906,47.28992],[8.93842,47.289545],[8.937891,47.289161],[8.935542,47.289091],[8.934861,47.288538],[8.933955,47.288248],[8.934408,47.287891],[8.935289,47.287843],[8.936616,47.287258],[8.938193,47.28551],[8.940686,47.28441],[8.940593,47.283739],[8.941291,47.283486],[8.942088,47.282132],[8.94178,47.28045],[8.94146,47.28042],[8.941324,47.280092],[8.94152,47.279936],[8.942617,47.279626],[8.943568,47.279672],[8.945601,47.282123],[8.947522,47.281897],[8.948166,47.281261],[8.948959,47.280944],[8.948855,47.28047],[8.948216,47.280252],[8.948376,47.279668],[8.947875,47.27903],[8.948082,47.277754],[8.947772,47.276927],[8.947784,47.276046],[8.947262,47.2749],[8.94617,47.274289],[8.944954,47.274132],[8.943769,47.272889],[8.942449,47.272314],[8.941302,47.272122],[8.941116,47.271761],[8.942658,47.270557],[8.942806,47.26998],[8.944587,47.269461],[8.943213,47.267978],[8.94302,47.26731],[8.940443,47.267238],[8.940695,47.266494],[8.94025,47.266119],[8.94106,47.26603],[8.940841,47.265486],[8.940523,47.265551],[8.940232,47.265232],[8.937874,47.26422],[8.937853,47.26373],[8.938294,47.263683],[8.938239,47.263367],[8.937678,47.263267],[8.93763,47.262547],[8.937145,47.262438],[8.937072,47.26211],[8.93621,47.261941],[8.937175,47.26161],[8.937186,47.261181],[8.936566,47.260929],[8.935876,47.260247],[8.934993,47.260261],[8.934181,47.259867],[8.933162,47.258801],[8.931658,47.258999],[8.930472,47.259631],[8.929141,47.25989],[8.928699,47.259573],[8.928431,47.258788],[8.924939,47.258182],[8.922566,47.257353],[8.920503,47.257042],[8.920554,47.256761],[8.909206,47.254375],[8.908516,47.25435],[8.907911,47.255217],[8.908608,47.25551],[8.908177,47.256599],[8.90516,47.255569],[8.899768,47.255066],[8.899158,47.254925],[8.899186,47.254572],[8.897702,47.254129],[8.895146,47.254094],[8.891738,47.253285],[8.884585,47.252568],[8.873622,47.251911],[8.873559,47.250866],[8.873999,47.249671],[8.873889,47.247626],[8.870704,47.246818],[8.870586,47.246716],[8.871032,47.24659],[8.871101,47.245865],[8.870302,47.245266],[8.874326,47.243805],[8.873967,47.243364],[8.874067,47.24319],[8.86838,47.242101],[8.867229,47.241613],[8.85862,47.241818],[8.854745,47.24161],[8.849474,47.243316],[8.846507,47.243045],[8.836986,47.244884],[8.829138,47.248844],[8.827868,47.251478],[8.834323,47.254912],[8.834974,47.265769],[8.838209,47.268966],[8.832014,47.271454],[8.825008,47.272903],[8.823858,47.275549],[8.823976,47.280088],[8.839211,47.282947],[8.841753,47.287321],[8.846881,47.284853],[8.851716,47.281549],[8.865072,47.284469],[8.86957,47.28638],[8.872894,47.288706],[8.884844,47.28967],[8.890742,47.299134],[8.89253,47.300683],[8.892142,47.319019],[8.912422,47.312398],[8.936539,47.30388],[8.956529,47.304229],[8.957059,47.304407]]]],"type":"MultiPolygon"},"id":134,"properties":{"name":"Zone 134","weight":1,"zone_id":134},"type":"Feature"},{"geometry":{"coordinates":[[[[8.789546,47.343865],[8.788371,47.343636],[8.787866,47.344031],[8.787758,47.344446],[8.788295,47.34479],[8.790122,47.344655],[8.791456,47.345168],[8.792445,47.346014],[8.793442,47.347952],[8.792761,47.348857],[8.791583,47.34907],[8.791809,47.350035],[8.790781,47.351823],[8.789762,47.352806],[8.787801,47.353729],[8.787378,47.354684],[8.787493,47.35584],[8.786344,47.357114],[8.786505,47.357533],[8.786138,47.357439],[8.785892,47.35849],[8.785298,47.35929],[8.783249,47.361389],[8.783244,47.361804],[8.782842,47.362092],[8.782795,47.362504],[8.781254,47.363947],[8.779904,47.364405],[8.779282,47.364148],[8.776956,47.364271],[8.776121,47.364097],[8.774815,47.363585],[8.773912,47.362674],[8.771277,47.362291],[8.771074,47.362031],[8.771201,47.360982],[8.769879,47.361325],[8.76908,47.360746],[8.768769,47.360075],[8.768771,47.359272],[8.768238,47.358581],[8.768274,47.357999],[8.768628,47.357514],[8.769585,47.356946],[8.771531,47.356344],[8.770988,47.355293],[8.770834,47.354397],[8.771394,47.353436],[8.769653,47.353321],[8.75189,47.348028],[8.748938,47.351382],[8.755273,47.368626],[8.755886,47.369553],[8.75597,47.37005],[8.755222,47.371871],[8.74639,47.372212],[8.735393,47.381566],[8.734803,47.385094],[8.73148,47.38685],[8.731107,47.38748],[8.721328,47.395348],[8.727573,47.400242],[8.739477,47.404267],[8.74562,47.402918],[8.748847,47.403684],[8.74977,47.404575],[8.754052,47.41392],[8.776911,47.410473],[8.778321,47.414207],[8.779346,47.415271],[8.792008,47.420322],[8.793015,47.421341],[8.796537,47.422997],[8.815145,47.411768],[8.825943,47.418462],[8.827327,47.418744],[8.842757,47.403607],[8.840193,47.400964],[8.840177,47.394389],[8.839913,47.393455],[8.832794,47.387671],[8.846532,47.372459],[8.84672,47.370775],[8.847538,47.370153],[8.848949,47.366325],[8.845697,47.35815],[8.839452,47.352087],[8.836642,47.351513],[8.829555,47.342506],[8.828531,47.338474],[8.811674,47.340688],[8.809497,47.339268],[8.806166,47.338327],[8.79681,47.340593],[8.790565,47.343386],[8.790205,47.3438],[8.789546,47.343865]]]],"type":"MultiPolygon"},"id":135,"properties":{"name":"Zone 135","weight":1,"zone_id":135},"type":"Feature"},{"geometry":{"coordinates":[[[[8.619817,47.353544],[8.626264,47.349638],[8.630439,47.346508],[8.633729,47.341356],[8.634822,47.340871],[8.636408,47.338156],[8.641189,47.334616],[8.631175,47.322571],[8.626309,47.316123],[8.635804,47.310377],[8.618327,47.301265],[8.619127,47.297291],[8.620719,47.29358],[8.614585,47.292461],[8.612192,47.294155],[8.610721,47.294524],[8.608315,47.293404],[8.606274,47.294625],[8.602233,47.29244],[8.59994,47.29206],[8.597979,47.294173],[8.59767,47.295461],[8.596332,47.297607],[8.596546,47.297735],[8.595928,47.298464],[8.595245,47.298736],[8.595294,47.298922],[8.594057,47.299316],[8.594203,47.299571],[8.59272,47.299872],[8.591152,47.301485],[8.591421,47.301609],[8.591259,47.301792],[8.590336,47.302024],[8.589625,47.302829],[8.589159,47.302977],[8.589063,47.303674],[8.589426,47.304204],[8.588771,47.3059],[8.588258,47.305808],[8.584781,47.308307],[8.58402,47.308214],[8.584349,47.30842],[8.583936,47.308657],[8.584065,47.308934],[8.582613,47.310492],[8.5823,47.310365],[8.582139,47.310949],[8.580824,47.311986],[8.579983,47.313255],[8.579677,47.313206],[8.57979,47.313314],[8.579431,47.313461],[8.578762,47.314636],[8.578794,47.3152],[8.57853,47.315296],[8.578746,47.315338],[8.578643,47.315956],[8.577505,47.317173],[8.577255,47.317086],[8.576697,47.317588],[8.578267,47.318616],[8.578311,47.31895],[8.578057,47.319055],[8.578328,47.319044],[8.578494,47.319375],[8.578267,47.320253],[8.577762,47.320251],[8.577694,47.320609],[8.577945,47.320497],[8.577749,47.321052],[8.576834,47.321943],[8.576559,47.323517],[8.575801,47.324784],[8.575342,47.325063],[8.575543,47.325148],[8.574918,47.325549],[8.57516,47.325682],[8.574738,47.325781],[8.573831,47.326702],[8.573043,47.328093],[8.572667,47.328044],[8.573026,47.328194],[8.572431,47.330794],[8.571586,47.33197],[8.570764,47.334123],[8.568892,47.336178],[8.568617,47.336721],[8.568636,47.337426],[8.568293,47.33762],[8.568519,47.33767],[8.568442,47.337845],[8.568,47.337759],[8.568261,47.337911],[8.567759,47.338227],[8.567999,47.338413],[8.567288,47.339035],[8.567458,47.339287],[8.566989,47.340253],[8.566622,47.342838],[8.565424,47.344921],[8.564225,47.346191],[8.563529,47.345986],[8.562885,47.346393],[8.562189,47.347129],[8.562784,47.347324],[8.562216,47.34722],[8.56168,47.348028],[8.561993,47.348031],[8.561308,47.348447],[8.561869,47.348849],[8.56127,47.348792],[8.560934,47.349024],[8.560928,47.349363],[8.561448,47.350055],[8.562575,47.35048],[8.566751,47.348546],[8.568558,47.34715],[8.56951,47.346784],[8.577627,47.347986],[8.580467,47.347795],[8.581799,47.347311],[8.585934,47.348242],[8.589898,47.350286],[8.590458,47.351533],[8.594137,47.352402],[8.599421,47.352003],[8.607868,47.353047],[8.612892,47.355383],[8.615063,47.355251],[8.619817,47.353544]]]],"type":"MultiPolygon"},"id":140,"properties":{"name":"Zone 140","weight":1,"zone_id":140},"type":"Feature"},{"geometry":{"coordinates":[[[[8.681674,47.294541],[8.688087,47.290446],[8.683727,47.279207],[8.678693,47.278409],[8.676965,47.277279],[8.677187,47.275711],[8.676712,47.272793],[8.674842,47.269757],[8.67114,47.26847],[8.672143,47.262309],[8.668717,47.260813],[8.666699,47.261439],[8.666845,47.261655],[8.666397,47.261992],[8.663048,47.2619],[8.66155,47.262672],[8.662876,47.263199],[8.661754,47.262805],[8.661267,47.263468],[8.66031,47.26409],[8.66043,47.264437],[8.659768,47.2645],[8.659676,47.264231],[8.65786,47.264009],[8.656189,47.26402],[8.656231,47.264185],[8.655795,47.264266],[8.655658,47.263896],[8.655652,47.264099],[8.654896,47.264144],[8.654825,47.264453],[8.65465,47.26421],[8.651648,47.264654],[8.652135,47.265319],[8.651449,47.264749],[8.650525,47.265393],[8.650006,47.266418],[8.649492,47.26661],[8.649592,47.26674],[8.648039,47.26672],[8.647746,47.267045],[8.64787,47.267506],[8.645688,47.267444],[8.645534,47.267665],[8.645535,47.267344],[8.645202,47.26758],[8.644851,47.267407],[8.645037,47.267133],[8.643347,47.267072],[8.64321,47.266873],[8.640672,47.2677],[8.64016,47.267418],[8.640159,47.267581],[8.63911,47.267739],[8.63872,47.268032],[8.638479,47.267697],[8.637569,47.268942],[8.637255,47.268937],[8.637433,47.268999],[8.636895,47.269662],[8.637265,47.269869],[8.636873,47.269694],[8.636593,47.270102],[8.635811,47.270486],[8.630624,47.271018],[8.629753,47.27089],[8.628587,47.271297],[8.627008,47.272625],[8.626754,47.272414],[8.62535,47.273387],[8.624176,47.273646],[8.623982,47.273485],[8.62297,47.274379],[8.619292,47.275826],[8.619213,47.276107],[8.617975,47.276538],[8.615842,47.277828],[8.615523,47.277752],[8.614989,47.278104],[8.615072,47.278374],[8.61442,47.278495],[8.612571,47.280519],[8.612703,47.280715],[8.612504,47.280963],[8.61037,47.282324],[8.609904,47.283478],[8.609494,47.283341],[8.609747,47.283462],[8.608554,47.284541],[8.608336,47.285014],[8.606017,47.287394],[8.60615,47.287467],[8.59994,47.29206],[8.602233,47.29244],[8.606274,47.294625],[8.608315,47.293404],[8.610721,47.294524],[8.612192,47.294155],[8.614585,47.292461],[8.620719,47.29358],[8.619127,47.297291],[8.618327,47.301265],[8.635804,47.310377],[8.64133,47.309519],[8.645592,47.308413],[8.648376,47.307111],[8.656736,47.298555],[8.662981,47.298359],[8.667426,47.297095],[8.674606,47.296473],[8.681674,47.294541]]]],"type":"MultiPolygon"},"id":141,"properties":{"name":"Zone 141","weight":1,"zone_id":141},"type":"Feature"},{"geometry":{"coordinates":[[[[8.74015,47.316194],[8.735814,47.30261],[8.738307,47.294783],[8.740709,47.291042],[8.740318,47.290528],[8.735469,47.287194],[8.729967,47.287713],[8.7278,47.287521],[8.707769,47.280909],[8.702476,47.273881],[8.70245,47.267239],[8.717602,47.264056],[8.718346,47.262959],[8.712118,47.255676],[8.71171,47.253899],[8.71187,47.252738],[8.712217,47.252435],[8.713393,47.247861],[8.713238,47.246014],[8.713038,47.245493],[8.710304,47.244072],[8.709836,47.244857],[8.707888,47.245596],[8.707199,47.246036],[8.707496,47.246167],[8.707301,47.246252],[8.706529,47.245718],[8.706129,47.245923],[8.70638,47.246169],[8.706081,47.246346],[8.706269,47.246582],[8.701613,47.247436],[8.701409,47.247118],[8.700458,47.247471],[8.700676,47.247819],[8.700301,47.247918],[8.700135,47.247732],[8.698641,47.248599],[8.696928,47.249087],[8.697103,47.249258],[8.696919,47.249337],[8.696578,47.24917],[8.696474,47.249449],[8.693165,47.251441],[8.69227,47.25159],[8.692222,47.251822],[8.691921,47.25155],[8.690399,47.252003],[8.689666,47.252411],[8.690019,47.252622],[8.689714,47.252949],[8.688958,47.252708],[8.688702,47.25321],[8.689113,47.253342],[8.688921,47.253711],[8.689124,47.253796],[8.688683,47.253669],[8.688323,47.253988],[8.68822,47.254106],[8.688578,47.254277],[8.687779,47.2546],[8.688024,47.254864],[8.687833,47.254939],[8.687662,47.254672],[8.687109,47.255085],[8.684517,47.256017],[8.684293,47.255736],[8.682655,47.256253],[8.682638,47.256451],[8.681423,47.256979],[8.68102,47.256733],[8.680975,47.257497],[8.677414,47.258159],[8.676985,47.258317],[8.677243,47.258615],[8.676174,47.258814],[8.676407,47.259173],[8.676016,47.259252],[8.675533,47.258488],[8.675693,47.258947],[8.67498,47.259124],[8.674344,47.258839],[8.672883,47.25921],[8.668717,47.260813],[8.672143,47.262309],[8.67114,47.26847],[8.674842,47.269757],[8.676712,47.272793],[8.677187,47.275711],[8.676965,47.277279],[8.678693,47.278409],[8.683727,47.279207],[8.688087,47.290446],[8.681674,47.294541],[8.674606,47.296473],[8.667426,47.297095],[8.662981,47.298359],[8.656736,47.298555],[8.648376,47.307111],[8.677705,47.32544],[8.687301,47.325186],[8.691824,47.319191],[8.700621,47.314089],[8.727505,47.326404],[8.728116,47.326105],[8.738228,47.317195],[8.74015,47.316194]]]],"type":"MultiPolygon"},"id":142,"properties":{"name":"Zone 142","weight":1,"zone_id":142},"type":"Feature"},{"geometry":{"coordinates":[[[[8.772472,47.287288],[8.786062,47.285844],[8.787735,47.281017],[8.789464,47.271785],[8.783789,47.269273],[8.781645,47.267908],[8.776083,47.266607],[8.767476,47.265443],[8.761056,47.263813],[8.757021,47.263277],[8.753987,47.261645],[8.750225,47.260268],[8.745839,47.258005],[8.736378,47.249735],[8.738587,47.247043],[8.747429,47.245166],[8.749107,47.244554],[8.753168,47.243873],[8.756779,47.244452],[8.770698,47.23618],[8.771587,47.234327],[8.769848,47.234682],[8.764013,47.234219],[8.761742,47.234258],[8.761636,47.234056],[8.759233,47.233991],[8.758995,47.233782],[8.75833,47.23391],[8.758222,47.2334],[8.75811,47.233703],[8.757527,47.233756],[8.757321,47.234032],[8.757229,47.233706],[8.757129,47.233967],[8.75693,47.233788],[8.756742,47.23416],[8.75591,47.234449],[8.755656,47.234287],[8.752707,47.234741],[8.752064,47.23478],[8.75202,47.234323],[8.751064,47.234236],[8.75033,47.234546],[8.7502,47.23419],[8.750028,47.23419],[8.750058,47.234445],[8.749192,47.23465],[8.746371,47.233674],[8.74211,47.234736],[8.741218,47.234638],[8.741299,47.23442],[8.739366,47.234225],[8.739319,47.233946],[8.738299,47.233669],[8.7381,47.23386],[8.738043,47.233625],[8.737635,47.233932],[8.73755,47.233606],[8.736971,47.233553],[8.736849,47.233776],[8.736617,47.233611],[8.736658,47.233788],[8.736084,47.234055],[8.735581,47.233778],[8.735846,47.233612],[8.73571,47.233434],[8.735305,47.233457],[8.734307,47.233679],[8.733746,47.234477],[8.72966,47.235878],[8.727958,47.236983],[8.727799,47.236847],[8.727143,47.237149],[8.727255,47.237302],[8.725799,47.237385],[8.725972,47.237722],[8.725668,47.237834],[8.724097,47.237995],[8.722978,47.237962],[8.722836,47.2377],[8.721308,47.237855],[8.720298,47.238203],[8.720653,47.238402],[8.720328,47.238548],[8.720078,47.23822],[8.719392,47.238364],[8.718789,47.238807],[8.718428,47.238512],[8.718169,47.23866],[8.718544,47.239008],[8.717708,47.239217],[8.717426,47.238947],[8.716733,47.239264],[8.716912,47.239507],[8.716714,47.239549],[8.716439,47.239115],[8.716134,47.239211],[8.713868,47.24091],[8.713431,47.2407],[8.7124,47.241195],[8.710789,47.242825],[8.710343,47.24352],[8.71064,47.243623],[8.710304,47.244072],[8.713038,47.245493],[8.713238,47.246014],[8.713393,47.247861],[8.712217,47.252435],[8.71187,47.252738],[8.71171,47.253899],[8.712118,47.255676],[8.718346,47.262959],[8.717602,47.264056],[8.70245,47.267239],[8.702476,47.273881],[8.707769,47.280909],[8.7278,47.287521],[8.729967,47.287713],[8.735469,47.287194],[8.740318,47.290528],[8.740709,47.291042],[8.748959,47.293117],[8.758793,47.292991],[8.763957,47.292184],[8.766158,47.290524],[8.772472,47.287288]]]],"type":"MultiPolygon"},"id":143,"properties":{"name":"Zone 143","weight":1,"zone_id":143},"type":"Feature"},{"geometry":{"coordinates":[[[[8.538191,47.334018],[8.539489,47.33344],[8.543625,47.333847],[8.543968,47.333475],[8.544202,47.333593],[8.544842,47.332964],[8.545177,47.332989],[8.544688,47.332751],[8.545032,47.33241],[8.545478,47.332517],[8.546242,47.33151],[8.545728,47.331342],[8.546173,47.33073],[8.546472,47.330827],[8.546932,47.329965],[8.547375,47.330091],[8.547611,47.329773],[8.547469,47.329579],[8.547789,47.328689],[8.547578,47.328641],[8.548951,47.326023],[8.54972,47.32511],[8.549976,47.324235],[8.550524,47.323727],[8.55079,47.323793],[8.551379,47.322686],[8.552046,47.322643],[8.551777,47.322509],[8.551801,47.322032],[8.551322,47.321936],[8.551707,47.32184],[8.551757,47.321206],[8.552156,47.320886],[8.551834,47.320661],[8.552196,47.320728],[8.552688,47.320216],[8.552849,47.319655],[8.553017,47.319702],[8.554492,47.318078],[8.55395,47.317817],[8.554651,47.31768],[8.554969,47.317276],[8.554773,47.317129],[8.555011,47.317222],[8.556424,47.315522],[8.55658,47.313916],[8.556277,47.313889],[8.556226,47.313622],[8.55662,47.31363],[8.556934,47.312905],[8.556777,47.312713],[8.556931,47.311006],[8.557627,47.310098],[8.558499,47.309903],[8.558392,47.309242],[8.559115,47.306309],[8.559042,47.305496],[8.55927,47.305498],[8.559429,47.304981],[8.559983,47.304876],[8.559764,47.304383],[8.559973,47.303871],[8.561229,47.302865],[8.561605,47.30207],[8.562119,47.301986],[8.563028,47.300911],[8.563616,47.300615],[8.564739,47.298995],[8.568069,47.296763],[8.568217,47.296259],[8.568808,47.29563],[8.569231,47.295525],[8.57034,47.293922],[8.572783,47.291662],[8.573254,47.291074],[8.573046,47.290987],[8.573368,47.290956],[8.574238,47.289814],[8.574021,47.289735],[8.57443,47.288762],[8.574812,47.288833],[8.575052,47.287644],[8.575251,47.287705],[8.576166,47.286702],[8.576676,47.286463],[8.576926,47.286165],[8.576764,47.286015],[8.577148,47.285899],[8.577465,47.285146],[8.577159,47.285004],[8.577503,47.285079],[8.577832,47.284611],[8.577944,47.284071],[8.577691,47.28382],[8.577915,47.283877],[8.578487,47.283311],[8.57833,47.283233],[8.579734,47.282347],[8.580028,47.281963],[8.579914,47.281807],[8.581566,47.279844],[8.58141,47.27979],[8.581784,47.279259],[8.581849,47.278607],[8.582443,47.278743],[8.581828,47.278592],[8.581864,47.277975],[8.581616,47.277966],[8.581622,47.277746],[8.582112,47.276506],[8.582894,47.276337],[8.583015,47.276011],[8.582291,47.275862],[8.582623,47.275002],[8.583056,47.274923],[8.582595,47.274807],[8.584312,47.272323],[8.585391,47.271551],[8.584755,47.2713],[8.584633,47.268748],[8.577018,47.265248],[8.570243,47.266691],[8.570115,47.268304],[8.568469,47.271762],[8.56716,47.27317],[8.562688,47.276322],[8.558757,47.277201],[8.552694,47.276287],[8.546643,47.274113],[8.541729,47.270593],[8.5326,47.278573],[8.524545,47.279722],[8.521071,47.282032],[8.513436,47.284676],[8.510417,47.290949],[8.505863,47.293036],[8.505061,47.298266],[8.511206,47.302954],[8.513027,47.304841],[8.515318,47.308618],[8.513505,47.312114],[8.512673,47.313131],[8.509718,47.315291],[8.503006,47.318236],[8.503118,47.319217],[8.507251,47.319832],[8.519436,47.322794],[8.521191,47.324421],[8.522313,47.32504],[8.526945,47.32479],[8.534041,47.327862],[8.533067,47.329672],[8.536359,47.33118],[8.538191,47.334018]]]],"type":"MultiPolygon"},"id":150,"properties":{"name":"Zone 150","weight":1,"zone_id":150},"type":"Feature"},{"geometry":{"coordinates":[[[[8.510417,47.290949],[8.513436,47.284676],[8.521071,47.282032],[8.524545,47.279722],[8.5326,47.278573],[8.541729,47.270593],[8.546643,47.274113],[8.552694,47.276287],[8.558757,47.277201],[8.562688,47.276322],[8.56716,47.27317],[8.568469,47.271762],[8.570115,47.268304],[8.570243,47.266691],[8.577018,47.265248],[8.584633,47.268748],[8.584755,47.2713],[8.585391,47.271551],[8.587458,47.270007],[8.588772,47.268341],[8.590086,47.267745],[8.590366,47.266947],[8.591018,47.266186],[8.590855,47.266057],[8.591042,47.26582],[8.590551,47.265646],[8.590898,47.26557],[8.591229,47.264869],[8.591616,47.264809],[8.592388,47.263916],[8.594616,47.262616],[8.595379,47.262648],[8.595908,47.262125],[8.597502,47.261913],[8.597766,47.262424],[8.597605,47.261821],[8.5994,47.261139],[8.599538,47.261428],[8.600359,47.261338],[8.601805,47.260012],[8.603096,47.259562],[8.60383,47.259612],[8.604595,47.259241],[8.605241,47.259238],[8.608619,47.258012],[8.611163,47.256671],[8.613962,47.255762],[8.618252,47.2553],[8.618567,47.255098],[8.6184,47.254974],[8.618804,47.254298],[8.619094,47.254401],[8.620341,47.253832],[8.62022,47.253686],[8.620719,47.253319],[8.622633,47.252497],[8.626954,47.25157],[8.627693,47.251734],[8.627602,47.251388],[8.627812,47.251669],[8.629511,47.251595],[8.630552,47.251191],[8.630482,47.250723],[8.630887,47.250543],[8.630639,47.250196],[8.623027,47.24467],[8.628045,47.240875],[8.627022,47.238058],[8.627919,47.235473],[8.627175,47.230545],[8.618347,47.227808],[8.617767,47.221202],[8.610785,47.221037],[8.608684,47.221503],[8.606715,47.228686],[8.607131,47.229187],[8.605879,47.233082],[8.606072,47.234583],[8.601329,47.233727],[8.598786,47.23424],[8.597983,47.234136],[8.597491,47.234501],[8.587575,47.236491],[8.584672,47.230188],[8.57958,47.222502],[8.576163,47.218342],[8.57588,47.217136],[8.574415,47.216937],[8.574186,47.217159],[8.574242,47.217584],[8.572812,47.218292],[8.567112,47.218431],[8.564142,47.219519],[8.560312,47.219454],[8.558741,47.220195],[8.55819,47.22114],[8.557603,47.221527],[8.553908,47.223097],[8.553006,47.221564],[8.546972,47.221871],[8.5459,47.221302],[8.53935,47.222983],[8.538565,47.222354],[8.536827,47.22169],[8.536704,47.220838],[8.53639,47.220506],[8.533493,47.221457],[8.532633,47.221953],[8.532655,47.220628],[8.532039,47.220067],[8.531857,47.219079],[8.53203,47.218247],[8.531134,47.217472],[8.530079,47.217667],[8.529893,47.218078],[8.528776,47.218468],[8.525917,47.218482],[8.525747,47.218764],[8.523129,47.21862],[8.52197,47.218863],[8.521297,47.219454],[8.521539,47.219728],[8.521266,47.22004],[8.520653,47.219232],[8.517492,47.219508],[8.512684,47.219304],[8.512572,47.218658],[8.512922,47.217087],[8.512755,47.216677],[8.51297,47.216524],[8.512443,47.215454],[8.510456,47.215592],[8.509483,47.214884],[8.508649,47.214834],[8.507347,47.214286],[8.505368,47.214623],[8.506014,47.213811],[8.503391,47.212338],[8.503395,47.212158],[8.501302,47.21174],[8.498383,47.211975],[8.498066,47.212241],[8.495029,47.211812],[8.493096,47.211828],[8.49181,47.211285],[8.489359,47.21079],[8.483881,47.208358],[8.48334,47.208681],[8.482797,47.208643],[8.483732,47.213283],[8.491024,47.225653],[8.485555,47.234569],[8.486573,47.236848],[8.482138,47.242829],[8.481222,47.249827],[8.501601,47.2518],[8.502196,47.256274],[8.498993,47.260645],[8.486722,47.259589],[8.485323,47.261265],[8.478584,47.265581],[8.466301,47.268265],[8.474415,47.275459],[8.467812,47.289256],[8.468527,47.291286],[8.477964,47.28893],[8.499761,47.290269],[8.505863,47.293036],[8.510417,47.290949]]]],"type":"MultiPolygon"},"id":151,"properties":{"name":"Zone 151","weight":1,"zone_id":151},"type":"Feature"},{"geometry":{"coordinates":[[[[8.648617,47.250485],[8.648931,47.250633],[8.648747,47.250355],[8.650641,47.24966],[8.651228,47.249204],[8.65158,47.24932],[8.651666,47.249015],[8.652089,47.248825],[8.651991,47.248407],[8.652213,47.248361],[8.651789,47.247425],[8.652337,47.247545],[8.652619,47.247098],[8.652739,47.246077],[8.653506,47.245463],[8.653452,47.245182],[8.65412,47.245353],[8.655416,47.244789],[8.655702,47.244934],[8.656115,47.244572],[8.657559,47.244394],[8.657426,47.243266],[8.658553,47.242293],[8.659239,47.241011],[8.659826,47.241083],[8.659765,47.240878],[8.660818,47.240043],[8.660509,47.238672],[8.661967,47.237251],[8.662899,47.236893],[8.663121,47.237021],[8.664387,47.236202],[8.664211,47.236056],[8.664634,47.235777],[8.668049,47.234064],[8.669274,47.233185],[8.67058,47.232679],[8.671568,47.232579],[8.673233,47.231561],[8.673466,47.231693],[8.674566,47.231141],[8.676426,47.22911],[8.675941,47.228918],[8.67647,47.228014],[8.678728,47.226079],[8.680074,47.225378],[8.680493,47.225488],[8.680476,47.225195],[8.680811,47.224936],[8.683274,47.223846],[8.685074,47.224359],[8.686068,47.223407],[8.685836,47.223286],[8.686146,47.223336],[8.686594,47.222868],[8.687136,47.221796],[8.688097,47.221242],[8.693436,47.218948],[8.696061,47.218514],[8.696313,47.218638],[8.696251,47.218443],[8.697359,47.218226],[8.700146,47.216726],[8.699699,47.216324],[8.684607,47.2128],[8.683721,47.212811],[8.675832,47.209888],[8.675304,47.20915],[8.675131,47.2074],[8.673693,47.203361],[8.671936,47.201884],[8.660678,47.205248],[8.652409,47.205257],[8.650665,47.205767],[8.646385,47.204646],[8.637863,47.204172],[8.637282,47.205171],[8.632221,47.209862],[8.6303,47.210795],[8.608051,47.204544],[8.606046,47.205141],[8.605609,47.205048],[8.603249,47.202966],[8.602042,47.202704],[8.600114,47.201493],[8.599394,47.201331],[8.598259,47.201711],[8.597831,47.202642],[8.597024,47.203203],[8.596255,47.204565],[8.596271,47.205321],[8.597233,47.205742],[8.597178,47.206081],[8.596466,47.206818],[8.596545,47.207216],[8.597446,47.208284],[8.597571,47.208918],[8.595996,47.210064],[8.594419,47.211838],[8.593248,47.211975],[8.591374,47.211431],[8.589979,47.211722],[8.588868,47.212375],[8.587933,47.212478],[8.58548,47.210724],[8.582813,47.210452],[8.582113,47.211002],[8.58192,47.212569],[8.581025,47.213891],[8.580892,47.214553],[8.581304,47.215345],[8.583234,47.216865],[8.583202,47.217547],[8.582319,47.217856],[8.58049,47.217438],[8.578973,47.217494],[8.577772,47.217892],[8.576805,47.218618],[8.576847,47.217609],[8.57588,47.217136],[8.576163,47.218342],[8.57958,47.222502],[8.584672,47.230188],[8.587575,47.236491],[8.597491,47.234501],[8.597983,47.234136],[8.598786,47.23424],[8.601329,47.233727],[8.606072,47.234583],[8.605879,47.233082],[8.607131,47.229187],[8.606715,47.228686],[8.608684,47.221503],[8.610785,47.221037],[8.617767,47.221202],[8.618347,47.227808],[8.627175,47.230545],[8.627919,47.235473],[8.627022,47.238058],[8.628045,47.240875],[8.623027,47.24467],[8.630887,47.250543],[8.631835,47.250299],[8.632363,47.250431],[8.633695,47.249994],[8.633575,47.249837],[8.635211,47.249499],[8.637034,47.250198],[8.638303,47.250168],[8.639311,47.251037],[8.639703,47.251794],[8.642763,47.251775],[8.642821,47.251998],[8.644423,47.251595],[8.644328,47.251415],[8.644551,47.251564],[8.648617,47.250485]]]],"type":"MultiPolygon"},"id":152,"properties":{"name":"Zone 152","weight":1,"zone_id":152},"type":"Feature"},{"geometry":{"coordinates":[[[[8.700146,47.216726],[8.700679,47.216424],[8.701144,47.215436],[8.701373,47.215478],[8.701167,47.215215],[8.70164,47.214426],[8.702617,47.213566],[8.702763,47.21333],[8.702611,47.213268],[8.703504,47.212278],[8.704421,47.212013],[8.706462,47.212217],[8.706714,47.212032],[8.706258,47.210427],[8.705956,47.210473],[8.705702,47.210107],[8.70719,47.20909],[8.707472,47.209186],[8.707203,47.208923],[8.709324,47.207393],[8.711335,47.206517],[8.711581,47.206596],[8.71136,47.206469],[8.711663,47.206468],[8.711767,47.205891],[8.711508,47.205275],[8.712851,47.203331],[8.71326,47.203184],[8.711183,47.202837],[8.709728,47.201576],[8.709325,47.201748],[8.707418,47.201617],[8.706374,47.203482],[8.704199,47.203209],[8.697724,47.198454],[8.698055,47.197618],[8.693949,47.194269],[8.692879,47.182971],[8.687676,47.178951],[8.689187,47.171092],[8.686261,47.17144],[8.690126,47.17017],[8.691873,47.168941],[8.691621,47.168258],[8.691915,47.167073],[8.692271,47.166778],[8.692423,47.163232],[8.690573,47.162756],[8.684707,47.162536],[8.682461,47.162048],[8.680375,47.161892],[8.676475,47.160628],[8.676176,47.160009],[8.675015,47.159351],[8.671925,47.159606],[8.667309,47.15939],[8.665156,47.159699],[8.663478,47.160447],[8.661294,47.160695],[8.66031,47.163921],[8.660665,47.164324],[8.660879,47.165404],[8.660686,47.166617],[8.661035,47.168168],[8.66031,47.169232],[8.660591,47.170237],[8.658477,47.170497],[8.6566,47.169863],[8.655614,47.169786],[8.652291,47.170941],[8.650349,47.170252],[8.64599,47.169748],[8.641704,47.168832],[8.639376,47.169511],[8.63922,47.170006],[8.639674,47.171114],[8.638937,47.171484],[8.6367,47.171653],[8.633761,47.171512],[8.631114,47.172082],[8.628055,47.171993],[8.625644,47.172327],[8.624313,47.17288],[8.623718,47.173692],[8.623868,47.174685],[8.624491,47.175339],[8.62512,47.176708],[8.626657,47.177688],[8.627862,47.178925],[8.627955,47.179575],[8.625972,47.180674],[8.625479,47.182162],[8.620523,47.1877],[8.620375,47.188597],[8.620786,47.190294],[8.618926,47.191145],[8.617287,47.192241],[8.617207,47.192796],[8.618,47.193914],[8.618048,47.194523],[8.6162,47.196683],[8.615422,47.198882],[8.613268,47.200508],[8.61271,47.201939],[8.610146,47.202915],[8.609059,47.204187],[8.608051,47.204544],[8.6303,47.210795],[8.632221,47.209862],[8.637282,47.205171],[8.637863,47.204172],[8.646385,47.204646],[8.650665,47.205767],[8.652409,47.205257],[8.660678,47.205248],[8.671936,47.201884],[8.673693,47.203361],[8.675131,47.2074],[8.675304,47.20915],[8.675832,47.209888],[8.683721,47.212811],[8.684607,47.2128],[8.699699,47.216324],[8.700146,47.216726]]]],"type":"MultiPolygon"},"id":153,"properties":{"name":"Zone 153","weight":1,"zone_id":153},"type":"Feature"},{"geometry":{"coordinates":[[[[8.399174,47.437539],[8.415177,47.434008],[8.419656,47.434227],[8.423248,47.431653],[8.426232,47.430966],[8.438234,47.429455],[8.443619,47.428065],[8.445514,47.427851],[8.449667,47.424834],[8.455493,47.422227],[8.458847,47.421375],[8.461584,47.419623],[8.465997,47.417866],[8.46626,47.417108],[8.468822,47.413089],[8.473203,47.409811],[8.477656,47.407251],[8.477926,47.40215],[8.4699,47.401738],[8.468945,47.399665],[8.472501,47.395684],[8.467033,47.392876],[8.461157,47.391705],[8.455991,47.388571],[8.454135,47.386093],[8.45968,47.381539],[8.460574,47.379893],[8.462247,47.378358],[8.464745,47.377098],[8.47223,47.374478],[8.474029,47.371557],[8.476231,47.369181],[8.476486,47.3676],[8.487263,47.361075],[8.500295,47.353753],[8.50158,47.351837],[8.500182,47.342543],[8.497036,47.344579],[8.497235,47.351582],[8.487482,47.358751],[8.479587,47.354357],[8.475779,47.354537],[8.47018,47.352706],[8.469067,47.350586],[8.45146,47.345138],[8.45104,47.343884],[8.455203,47.337126],[8.455851,47.335011],[8.452207,47.330607],[8.430748,47.33026],[8.42715,47.330588],[8.419444,47.333494],[8.416124,47.333283],[8.416589,47.333808],[8.416674,47.334271],[8.415742,47.335722],[8.416498,47.336847],[8.415559,47.337009],[8.414681,47.336758],[8.413264,47.338202],[8.412884,47.338357],[8.411912,47.338164],[8.412047,47.338685],[8.411273,47.338803],[8.410451,47.340156],[8.408408,47.341235],[8.407216,47.341517],[8.407575,47.342241],[8.406875,47.342209],[8.406616,47.34295],[8.406195,47.343047],[8.406551,47.343973],[8.404685,47.344917],[8.404782,47.345166],[8.40374,47.346564],[8.404231,47.347601],[8.405461,47.348865],[8.405663,47.351132],[8.408036,47.353361],[8.409101,47.355014],[8.40725,47.355514],[8.407231,47.357027],[8.406654,47.357976],[8.407099,47.359956],[8.406666,47.360087],[8.406725,47.361301],[8.405976,47.362858],[8.404808,47.364095],[8.405173,47.364308],[8.405281,47.365016],[8.406242,47.366012],[8.408044,47.366705],[8.40786,47.367197],[8.407175,47.367827],[8.406998,47.368421],[8.406978,47.36882],[8.407691,47.36972],[8.406986,47.37013],[8.402983,47.369902],[8.40189,47.370543],[8.400331,47.370424],[8.399605,47.370697],[8.398979,47.371303],[8.397286,47.371628],[8.39555,47.372372],[8.394565,47.372914],[8.394266,47.373736],[8.394651,47.374638],[8.394,47.375252],[8.394031,47.375688],[8.392916,47.376041],[8.391478,47.376926],[8.383884,47.376585],[8.386153,47.381514],[8.391253,47.386955],[8.395665,47.396519],[8.390067,47.397393],[8.386155,47.396527],[8.383222,47.398109],[8.377638,47.398714],[8.374743,47.399733],[8.374984,47.407604],[8.382382,47.408396],[8.385614,47.410238],[8.378445,47.416828],[8.379941,47.418218],[8.384214,47.419357],[8.386772,47.424193],[8.380533,47.432921],[8.380712,47.432883],[8.381011,47.43339],[8.382735,47.433022],[8.383783,47.434577],[8.383735,47.435028],[8.384733,47.43574],[8.393272,47.437478],[8.399174,47.437539]]]],"type":"MultiPolygon"},"id":154,"properties":{"name":"Zone 154","weight":1,"zone_id":154},"type":"Feature"},{"geometry":{"coordinates":[[[[8.487482,47.358751],[8.497235,47.351582],[8.497036,47.344579],[8.502644,47.340668],[8.503517,47.337751],[8.50299,47.335749],[8.501009,47.331643],[8.501529,47.325739],[8.502272,47.324059],[8.502206,47.322573],[8.503118,47.319217],[8.503006,47.318236],[8.509718,47.315291],[8.512673,47.313131],[8.513505,47.312114],[8.515318,47.308618],[8.513027,47.304841],[8.511206,47.302954],[8.505061,47.298266],[8.505863,47.293036],[8.499761,47.290269],[8.477964,47.28893],[8.468527,47.291286],[8.467305,47.293331],[8.447563,47.289508],[8.439004,47.293537],[8.43775,47.293769],[8.429724,47.298035],[8.42445,47.303455],[8.41602,47.303156],[8.415354,47.302401],[8.411143,47.292976],[8.404267,47.289136],[8.391543,47.286362],[8.390265,47.288321],[8.388527,47.289986],[8.38983,47.290514],[8.389892,47.290731],[8.3921,47.29108],[8.392786,47.290985],[8.394209,47.290221],[8.394744,47.289524],[8.395576,47.289139],[8.386988,47.312995],[8.386121,47.317445],[8.387443,47.317772],[8.386505,47.319412],[8.386602,47.319681],[8.388934,47.319555],[8.388676,47.32009],[8.390796,47.319672],[8.392122,47.319803],[8.394708,47.319608],[8.396272,47.318873],[8.400112,47.31942],[8.401632,47.320028],[8.404002,47.318396],[8.404266,47.318889],[8.407528,47.320697],[8.408324,47.321613],[8.410077,47.322576],[8.410486,47.323072],[8.411819,47.323217],[8.410023,47.325811],[8.409393,47.32533],[8.408669,47.325275],[8.407928,47.325518],[8.4072,47.326219],[8.407096,47.326876],[8.408621,47.327148],[8.408145,47.328569],[8.410868,47.329715],[8.411356,47.328991],[8.411996,47.328592],[8.413289,47.328784],[8.413837,47.33073],[8.416124,47.333283],[8.419444,47.333494],[8.42715,47.330588],[8.430748,47.33026],[8.452207,47.330607],[8.455851,47.335011],[8.455203,47.337126],[8.45104,47.343884],[8.45146,47.345138],[8.469067,47.350586],[8.47018,47.352706],[8.475779,47.354537],[8.479587,47.354357],[8.487482,47.358751]]]],"type":"MultiPolygon"},"id":155,"properties":{"name":"Zone 155","weight":1,"zone_id":155},"type":"Feature"},{"geometry":{"coordinates":[[[[8.482797,47.208643],[8.479964,47.208492],[8.477155,47.209233],[8.476223,47.20989],[8.475656,47.209544],[8.475241,47.208849],[8.473249,47.208439],[8.4725,47.209494],[8.472901,47.209784],[8.472775,47.210227],[8.473621,47.210628],[8.472196,47.211729],[8.470323,47.21186],[8.469993,47.213292],[8.468275,47.212866],[8.466913,47.21419],[8.461347,47.213548],[8.46032,47.215275],[8.458639,47.216909],[8.457162,47.217641],[8.456612,47.218461],[8.455643,47.218432],[8.452999,47.21767],[8.452493,47.21781],[8.451514,47.218355],[8.452853,47.218669],[8.452042,47.219499],[8.450236,47.219375],[8.45017,47.219992],[8.447699,47.219969],[8.447586,47.221018],[8.446306,47.222098],[8.446508,47.223277],[8.444679,47.222982],[8.44375,47.222552],[8.442517,47.223512],[8.441131,47.225069],[8.440112,47.224251],[8.439139,47.223822],[8.43719,47.223592],[8.43229,47.224031],[8.429773,47.224855],[8.425679,47.223664],[8.421599,47.223254],[8.420826,47.225593],[8.419903,47.225679],[8.419119,47.226198],[8.418471,47.226092],[8.418066,47.226579],[8.418216,47.22694],[8.417823,47.228387],[8.417092,47.22894],[8.417252,47.229341],[8.416713,47.23205],[8.416903,47.233756],[8.416513,47.234529],[8.416617,47.235246],[8.416096,47.236084],[8.416363,47.236962],[8.415079,47.238376],[8.414128,47.238923],[8.4143,47.23961],[8.415556,47.240195],[8.416367,47.241289],[8.415677,47.242246],[8.414379,47.242738],[8.413308,47.244324],[8.412888,47.246044],[8.412232,47.246994],[8.41105,47.247873],[8.40999,47.248308],[8.407638,47.250597],[8.403629,47.253474],[8.402768,47.254581],[8.402507,47.255534],[8.402577,47.256366],[8.404176,47.259068],[8.404305,47.260626],[8.403427,47.262066],[8.4009,47.26394],[8.400374,47.265327],[8.402239,47.270706],[8.40217,47.272076],[8.401193,47.273443],[8.396109,47.276866],[8.394777,47.27819],[8.394082,47.27948],[8.39296,47.283397],[8.391543,47.286362],[8.404267,47.289136],[8.411143,47.292976],[8.415354,47.302401],[8.41602,47.303156],[8.42445,47.303455],[8.429724,47.298035],[8.43775,47.293769],[8.439004,47.293537],[8.447563,47.289508],[8.467305,47.293331],[8.468527,47.291286],[8.467812,47.289256],[8.467985,47.288577],[8.474415,47.275459],[8.466301,47.268265],[8.478584,47.265581],[8.485323,47.261265],[8.486722,47.259589],[8.498993,47.260645],[8.502196,47.256274],[8.501601,47.2518],[8.481222,47.249827],[8.482138,47.242829],[8.486573,47.236848],[8.485555,47.234569],[8.491024,47.225653],[8.483732,47.213283],[8.482797,47.208643]]]],"type":"MultiPolygon"},"id":156,"properties":{"name":"Zone 156","weight":1,"zone_id":156},"type":"Feature"},{"geometry":{"coordinates":[[[[8.735517,47.599486],[8.751662,47.596426],[8.753785,47.594614],[8.774257,47.589428],[8.768325,47.576872],[8.770006,47.571305],[8.787845,47.564085],[8.78901,47.561505],[8.785333,47.558221],[8.782782,47.55635],[8.77984,47.54924],[8.766189,47.540707],[8.764213,47.54131],[8.759039,47.541385],[8.752106,47.539119],[8.742955,47.529945],[8.739239,47.527167],[8.737394,47.521689],[8.722459,47.525648],[8.713624,47.521709],[8.705754,47.519141],[8.696623,47.522644],[8.694284,47.525],[8.697268,47.529035],[8.698341,47.537647],[8.689264,47.541453],[8.683103,47.552272],[8.683556,47.553128],[8.669225,47.562907],[8.664074,47.562997],[8.659304,47.564221],[8.65694,47.586231],[8.656575,47.587428],[8.679151,47.584422],[8.686646,47.573864],[8.697832,47.571767],[8.701485,47.573941],[8.703708,47.576327],[8.73313,47.575131],[8.734077,47.575571],[8.711599,47.596263],[8.71302,47.598397],[8.715758,47.598834],[8.735517,47.599486]]]],"type":"MultiPolygon"},"id":160,"properties":{"name":"Zone 160","weight":1,"zone_id":160},"type":"Feature"},{"geometry":{"coordinates":[[[[8.716409,47.6432],[8.717289,47.641926],[8.7198,47.641176],[8.720271,47.641979],[8.723377,47.641936],[8.723499,47.64263],[8.72408,47.642589],[8.724631,47.643142],[8.729655,47.642907],[8.730717,47.642327],[8.73488,47.641277],[8.735554,47.641934],[8.7354,47.642135],[8.73627,47.642401],[8.738092,47.641954],[8.740735,47.642263],[8.743585,47.643082],[8.742954,47.642272],[8.743279,47.642186],[8.743469,47.641382],[8.743488,47.639839],[8.745369,47.639522],[8.74718,47.638883],[8.750968,47.625843],[8.739733,47.62141],[8.735517,47.599486],[8.715758,47.598834],[8.71302,47.598397],[8.711599,47.596263],[8.734077,47.575571],[8.73313,47.575131],[8.703708,47.576327],[8.701485,47.573941],[8.697832,47.571767],[8.686646,47.573864],[8.679151,47.584422],[8.656575,47.587428],[8.639398,47.598422],[8.637577,47.600664],[8.655355,47.60729],[8.658878,47.60914],[8.67199,47.610724],[8.699009,47.616671],[8.701131,47.621607],[8.705117,47.623968],[8.716409,47.6432]]]],"type":"MultiPolygon"},"id":161,"properties":{"name":"Zone 161","weight":1,"zone_id":161},"type":"Feature"},{"geometry":{"coordinates":[[[[8.803317,47.665298],[8.805387,47.664739],[8.805356,47.664146],[8.8043,47.663832],[8.804165,47.662381],[8.803575,47.660706],[8.805063,47.660416],[8.805115,47.658551],[8.804447,47.655016],[8.805336,47.654733],[8.805,47.652292],[8.809983,47.651707],[8.814783,47.649736],[8.81565,47.649967],[8.81586,47.649255],[8.817066,47.649622],[8.818943,47.64901],[8.820991,47.649008],[8.824648,47.647887],[8.824647,47.647645],[8.826265,47.64702],[8.826706,47.646541],[8.825996,47.644317],[8.826546,47.643657],[8.827061,47.643474],[8.826945,47.642528],[8.827922,47.640889],[8.827524,47.63903],[8.826992,47.638633],[8.826827,47.637851],[8.825453,47.637442],[8.824796,47.635291],[8.823928,47.634431],[8.824806,47.63386],[8.823856,47.63314],[8.822784,47.632876],[8.821473,47.631448],[8.821002,47.631502],[8.820372,47.630587],[8.820919,47.630444],[8.820333,47.629236],[8.818025,47.629734],[8.817684,47.628178],[8.815907,47.628601],[8.815507,47.62774],[8.814601,47.62783],[8.814087,47.6271],[8.813241,47.627313],[8.813098,47.625687],[8.813651,47.625638],[8.813459,47.624718],[8.813672,47.6245],[8.813357,47.624028],[8.812412,47.624309],[8.811866,47.622713],[8.81385,47.622412],[8.813085,47.622],[8.813095,47.621677],[8.814401,47.62173],[8.814431,47.621073],[8.813698,47.620585],[8.813003,47.620519],[8.813091,47.619497],[8.812206,47.61937],[8.811734,47.618981],[8.812983,47.61822],[8.812338,47.617623],[8.812778,47.617338],[8.814072,47.617287],[8.813904,47.616772],[8.813199,47.616441],[8.811427,47.616304],[8.810727,47.61564],[8.810663,47.615102],[8.808732,47.615018],[8.808587,47.614004],[8.806763,47.614101],[8.805137,47.613658],[8.804835,47.61329],[8.804216,47.61162],[8.804256,47.610166],[8.803983,47.609608],[8.804264,47.609421],[8.803497,47.608528],[8.805327,47.607349],[8.805266,47.606837],[8.806092,47.60489],[8.804562,47.604465],[8.805453,47.603017],[8.806076,47.603025],[8.806466,47.601131],[8.806147,47.601107],[8.806084,47.600505],[8.807569,47.600318],[8.809986,47.600431],[8.810448,47.59787],[8.81142,47.597891],[8.811353,47.596631],[8.808203,47.595429],[8.804848,47.595492],[8.804816,47.596225],[8.803961,47.596339],[8.803705,47.596681],[8.803944,47.595473],[8.803745,47.59493],[8.774257,47.589428],[8.753785,47.594614],[8.751662,47.596426],[8.735517,47.599486],[8.739733,47.62141],[8.750968,47.625843],[8.74718,47.638883],[8.748079,47.640839],[8.749649,47.641539],[8.751928,47.64134],[8.752065,47.642472],[8.75514,47.642111],[8.755578,47.643157],[8.757628,47.643177],[8.758704,47.644008],[8.759662,47.645987],[8.759907,47.645965],[8.759957,47.645666],[8.762273,47.646238],[8.764754,47.648881],[8.766262,47.649028],[8.768336,47.650175],[8.771153,47.649908],[8.772635,47.650019],[8.774436,47.648858],[8.776146,47.648933],[8.777036,47.649554],[8.777874,47.650818],[8.780852,47.651741],[8.782181,47.652424],[8.783743,47.653683],[8.783649,47.654089],[8.785318,47.65518],[8.785877,47.655241],[8.785734,47.657702],[8.786426,47.658133],[8.786589,47.65928],[8.786452,47.660747],[8.787648,47.663145],[8.788469,47.665437],[8.792986,47.664764],[8.803317,47.665298]]]],"type":"MultiPolygon"},"id":162,"properties":{"name":"Zone 162","weight":1,"zone_id":162},"type":"Feature"},{"geometry":{"coordinates":[[[[8.867806,47.530513],[8.852175,47.523369],[8.83855,47.512284],[8.817688,47.51318],[8.811702,47.514712],[8.797534,47.513203],[8.792175,47.511696],[8.786058,47.513048],[8.778433,47.513984],[8.776279,47.514775],[8.774468,47.517287],[8.771078,47.519105],[8.767342,47.522309],[8.763934,47.528266],[8.767736,47.538579],[8.766189,47.540707],[8.77984,47.54924],[8.782782,47.55635],[8.785333,47.558221],[8.78901,47.561505],[8.787845,47.564085],[8.770006,47.571305],[8.768325,47.576872],[8.774257,47.589428],[8.80393,47.595003],[8.803961,47.594249],[8.803219,47.593618],[8.803073,47.593162],[8.803156,47.592703],[8.803958,47.592339],[8.802765,47.592658],[8.80257,47.591874],[8.802154,47.591905],[8.802003,47.591283],[8.80143,47.591086],[8.802887,47.59063],[8.802044,47.589215],[8.800049,47.589661],[8.798058,47.585106],[8.806165,47.583185],[8.805582,47.582056],[8.80246,47.582763],[8.801207,47.580585],[8.806324,47.579546],[8.805429,47.577331],[8.805852,47.577153],[8.804891,47.575075],[8.808217,47.574365],[8.807564,47.571634],[8.813801,47.570276],[8.816498,47.570256],[8.817209,47.571994],[8.819574,47.571496],[8.820014,47.572517],[8.820511,47.572482],[8.821927,47.571757],[8.822489,47.573149],[8.823863,47.572567],[8.829972,47.571204],[8.830483,47.572777],[8.831263,47.573481],[8.838923,47.57124],[8.83796,47.568641],[8.839213,47.568661],[8.839387,47.568482],[8.839389,47.565485],[8.841765,47.566017],[8.842125,47.566479],[8.844863,47.566223],[8.845021,47.566081],[8.844447,47.563349],[8.851097,47.563637],[8.851162,47.560725],[8.845824,47.560662],[8.841691,47.559935],[8.840762,47.559388],[8.840853,47.558435],[8.840295,47.557813],[8.838704,47.557262],[8.831908,47.557732],[8.829605,47.55752],[8.829779,47.556189],[8.8281,47.555875],[8.830846,47.552112],[8.829971,47.551703],[8.831124,47.549925],[8.831806,47.549986],[8.831989,47.549137],[8.832619,47.549159],[8.83284,47.548941],[8.832651,47.548379],[8.832211,47.548056],[8.832358,47.547423],[8.833379,47.546644],[8.832848,47.546068],[8.834161,47.545078],[8.834409,47.544638],[8.833834,47.544396],[8.834599,47.543],[8.836344,47.543034],[8.837223,47.541345],[8.83868,47.540214],[8.838326,47.539436],[8.840061,47.539368],[8.840116,47.53841],[8.839613,47.537939],[8.83949,47.537287],[8.840737,47.537462],[8.841298,47.536875],[8.841114,47.536399],[8.840838,47.536352],[8.840741,47.535856],[8.841315,47.535178],[8.841115,47.534656],[8.841273,47.533486],[8.840946,47.532734],[8.847446,47.531351],[8.851505,47.531194],[8.855908,47.531539],[8.856037,47.531095],[8.855856,47.530499],[8.857525,47.530798],[8.85803,47.530434],[8.867806,47.530513]]]],"type":"MultiPolygon"},"id":163,"properties":{"name":"Zone 163","weight":1,"zone_id":163},"type":"Feature"},{"geometry":{"coordinates":[[[[8.867806,47.530513],[8.870046,47.530329],[8.87436,47.529417],[8.87999,47.527289],[8.879786,47.527656],[8.883491,47.529499],[8.886248,47.527978],[8.887662,47.528464],[8.888202,47.527763],[8.888158,47.527506],[8.889884,47.526898],[8.890484,47.527063],[8.892076,47.526873],[8.893794,47.526381],[8.893994,47.526138],[8.895978,47.526007],[8.896864,47.52566],[8.897847,47.524113],[8.898471,47.524179],[8.897182,47.521103],[8.896651,47.520271],[8.895472,47.519247],[8.897233,47.517689],[8.896757,47.517272],[8.897065,47.516052],[8.896772,47.515575],[8.896483,47.513663],[8.89697,47.512001],[8.897749,47.511258],[8.897439,47.510587],[8.897605,47.507782],[8.897054,47.50765],[8.897074,47.506925],[8.896382,47.505668],[8.896965,47.505521],[8.897239,47.50499],[8.896558,47.504087],[8.895388,47.50354],[8.895484,47.50263],[8.89511,47.502625],[8.893699,47.500598],[8.892817,47.500474],[8.892726,47.497586],[8.893494,47.497424],[8.893607,47.494894],[8.893447,47.494432],[8.893674,47.494272],[8.893367,47.491833],[8.893516,47.491586],[8.893075,47.491189],[8.892955,47.488506],[8.894852,47.488672],[8.89688,47.487963],[8.89719,47.486749],[8.897732,47.485981],[8.897831,47.485089],[8.89687,47.484499],[8.890733,47.483131],[8.88958,47.482474],[8.888639,47.482223],[8.887943,47.482375],[8.88544,47.481659],[8.885701,47.480674],[8.884622,47.478859],[8.884996,47.476973],[8.88299,47.475515],[8.881447,47.47473],[8.884672,47.473762],[8.884853,47.473471],[8.884717,47.472337],[8.883517,47.471159],[8.884137,47.470781],[8.883733,47.470175],[8.884425,47.469756],[8.885393,47.469889],[8.882354,47.467436],[8.871792,47.460396],[8.870762,47.457994],[8.871216,47.450268],[8.867986,47.447663],[8.857338,47.444943],[8.842295,47.446671],[8.834855,47.449323],[8.833276,47.453243],[8.828369,47.458228],[8.808142,47.460589],[8.810642,47.468929],[8.802391,47.481167],[8.793539,47.486286],[8.790033,47.48629],[8.781144,47.492746],[8.782167,47.494384],[8.780802,47.503291],[8.788383,47.512385],[8.792357,47.511701],[8.797534,47.513203],[8.811702,47.514712],[8.817688,47.51318],[8.83855,47.512284],[8.852175,47.523369],[8.867806,47.530513]]]],"type":"MultiPolygon"},"id":164,"properties":{"name":"Zone 164","weight":1,"zone_id":164},"type":"Feature"},{"geometry":{"coordinates":[[[[8.834855,47.449323],[8.829638,47.444035],[8.828991,47.441466],[8.82604,47.440066],[8.818142,47.434662],[8.805361,47.435794],[8.803114,47.434619],[8.801891,47.427738],[8.796537,47.422997],[8.793015,47.421341],[8.792008,47.420322],[8.779346,47.415271],[8.778321,47.414207],[8.776911,47.410473],[8.754052,47.41392],[8.752454,47.417967],[8.748069,47.419003],[8.74704,47.436309],[8.745536,47.43774],[8.747934,47.439733],[8.751328,47.445991],[8.757845,47.451212],[8.759548,47.453639],[8.759455,47.45483],[8.769971,47.464295],[8.792652,47.457245],[8.802295,47.459571],[8.806298,47.45969],[8.808142,47.460589],[8.828369,47.458228],[8.833276,47.453243],[8.834855,47.449323]]]],"type":"MultiPolygon"},"id":170,"properties":{"name":"Zone 170","weight":1,"zone_id":170},"type":"Feature"},{"geometry":{"coordinates":[[[[8.950656,47.372425],[8.951424,47.371723],[8.95163,47.371036],[8.950656,47.372425]]],[[[8.950653,47.372427],[8.939266,47.372049],[8.931481,47.369601],[8.923406,47.371734],[8.906123,47.367332],[8.903184,47.375589],[8.905744,47.383849],[8.888445,47.390948],[8.880434,47.390557],[8.878778,47.392491],[8.876921,47.393787],[8.859614,47.402433],[8.846515,47.404408],[8.842757,47.403607],[8.827327,47.418744],[8.825943,47.418462],[8.815145,47.411768],[8.796537,47.422997],[8.801891,47.427738],[8.803114,47.434619],[8.805361,47.435794],[8.818142,47.434662],[8.82604,47.440066],[8.828991,47.441466],[8.829638,47.444035],[8.834855,47.449323],[8.842295,47.446671],[8.857338,47.444943],[8.867986,47.447663],[8.871216,47.450268],[8.870762,47.457994],[8.871792,47.460396],[8.882354,47.467436],[8.885393,47.469889],[8.886592,47.470203],[8.886544,47.469751],[8.890797,47.469379],[8.890898,47.467992],[8.891932,47.465926],[8.893868,47.465143],[8.893696,47.464887],[8.891897,47.46435],[8.894019,47.463776],[8.894526,47.463011],[8.895743,47.462798],[8.896469,47.460623],[8.895573,47.459753],[8.89835,47.458326],[8.898057,47.457893],[8.900543,47.454352],[8.90364,47.453519],[8.905285,47.452178],[8.905789,47.451338],[8.907107,47.450805],[8.907595,47.449758],[8.908935,47.448369],[8.909118,47.447712],[8.908665,47.447364],[8.907335,47.447185],[8.906069,47.446561],[8.905711,47.446687],[8.904501,47.445165],[8.9028,47.444244],[8.904523,47.44249],[8.905492,47.441878],[8.90573,47.440907],[8.907168,47.439577],[8.906959,47.438842],[8.911192,47.436689],[8.91238,47.436589],[8.914422,47.436833],[8.916234,47.436517],[8.917423,47.436644],[8.918895,47.436336],[8.920091,47.43545],[8.921936,47.434946],[8.924314,47.435157],[8.925238,47.434877],[8.926966,47.4355],[8.931114,47.435393],[8.932748,47.435628],[8.932789,47.435239],[8.932274,47.434789],[8.933226,47.434239],[8.931861,47.433253],[8.931106,47.431867],[8.930258,47.431522],[8.929262,47.431752],[8.929239,47.431934],[8.928546,47.431431],[8.926506,47.431313],[8.925523,47.431542],[8.924535,47.432178],[8.923,47.43271],[8.920299,47.432886],[8.918062,47.432313],[8.916999,47.433048],[8.914965,47.432276],[8.914314,47.431655],[8.913599,47.431442],[8.912493,47.432741],[8.912599,47.432912],[8.912174,47.43366],[8.910929,47.433662],[8.909956,47.433047],[8.908873,47.43179],[8.907879,47.431297],[8.907803,47.430322],[8.908799,47.429602],[8.914634,47.427804],[8.914795,47.426965],[8.913821,47.426663],[8.911952,47.425346],[8.912242,47.424965],[8.911767,47.424596],[8.911901,47.424078],[8.911716,47.423911],[8.912682,47.423818],[8.912555,47.423197],[8.911701,47.422947],[8.911776,47.422149],[8.912751,47.420834],[8.91323,47.419318],[8.91406,47.418308],[8.912745,47.416483],[8.912546,47.415573],[8.912963,47.414802],[8.913036,47.413668],[8.912813,47.4128],[8.910921,47.411856],[8.909737,47.41038],[8.909585,47.409071],[8.906664,47.406918],[8.905936,47.405962],[8.905193,47.405438],[8.904617,47.404556],[8.904548,47.40284],[8.903603,47.402091],[8.906591,47.401413],[8.907115,47.401076],[8.909504,47.401392],[8.910636,47.401177],[8.911379,47.401497],[8.911732,47.401094],[8.912243,47.400999],[8.913439,47.401285],[8.913653,47.401099],[8.913451,47.400751],[8.913578,47.400505],[8.914132,47.400695],[8.914436,47.40038],[8.91551,47.400277],[8.91599,47.399912],[8.917862,47.400056],[8.920884,47.39954],[8.926081,47.39696],[8.926203,47.396586],[8.927513,47.395886],[8.927613,47.395551],[8.927264,47.395182],[8.927446,47.394726],[8.927812,47.394667],[8.92845,47.393934],[8.928942,47.393984],[8.930215,47.393164],[8.930232,47.392712],[8.931258,47.392216],[8.931971,47.39155],[8.933983,47.390718],[8.936151,47.390329],[8.938321,47.38873],[8.941646,47.387378],[8.94368,47.38559],[8.943835,47.384298],[8.943692,47.383758],[8.942735,47.382475],[8.941206,47.381412],[8.940271,47.379839],[8.940509,47.37924],[8.941239,47.378174],[8.944288,47.375471],[8.945388,47.374782],[8.94685,47.375053],[8.948232,47.37481],[8.949187,47.373919],[8.949543,47.372976],[8.950653,47.372427]]]],"type":"MultiPolygon"},"id":171,"properties":{"name":"Zone 171","weight":1,"zone_id":171},"type":"Feature"},{"geometry":{"coordinates":[[[[8.931481,47.369601],[8.939266,47.372049],[8.950656,47.372425],[8.952446,47.369871],[8.954393,47.366049],[8.954831,47.364141],[8.938609,47.364582],[8.933733,47.364181],[8.919768,47.350447],[8.90355,47.345824],[8.894033,47.345412],[8.8918,47.344136],[8.890421,47.341663],[8.886772,47.328572],[8.870956,47.323343],[8.852819,47.323511],[8.847659,47.322408],[8.83769,47.331018],[8.836507,47.33237],[8.832666,47.333536],[8.828636,47.336897],[8.828531,47.338474],[8.829555,47.342506],[8.836642,47.351513],[8.839452,47.352087],[8.845697,47.35815],[8.848949,47.366325],[8.847538,47.370153],[8.84672,47.370775],[8.846532,47.372459],[8.832794,47.387671],[8.839913,47.393455],[8.840177,47.394389],[8.840193,47.400964],[8.842757,47.403607],[8.846515,47.404408],[8.859614,47.402433],[8.876921,47.393787],[8.878778,47.392491],[8.880434,47.390557],[8.888445,47.390948],[8.905744,47.383849],[8.903184,47.375589],[8.906123,47.367332],[8.923406,47.371734],[8.931481,47.369601]]]],"type":"MultiPolygon"},"id":172,"properties":{"name":"Zone 172","weight":1,"zone_id":172},"type":"Feature"},{"geometry":{"coordinates":[[[[8.96024,47.353886],[8.963431,47.354532],[8.967442,47.354361],[8.96898,47.353767],[8.969235,47.352985],[8.969809,47.35259],[8.970879,47.352372],[8.971878,47.352585],[8.971777,47.351928],[8.972642,47.349964],[8.97455,47.347378],[8.973453,47.34618],[8.973945,47.344664],[8.974032,47.342792],[8.974315,47.342183],[8.974143,47.341337],[8.973275,47.339918],[8.977047,47.338548],[8.979417,47.337971],[8.979043,47.33568],[8.979216,47.335129],[8.978617,47.33389],[8.977409,47.332481],[8.976927,47.329254],[8.977604,47.327086],[8.979873,47.325548],[8.979796,47.324121],[8.981018,47.32271],[8.984264,47.320614],[8.985081,47.319378],[8.982339,47.316507],[8.981803,47.31502],[8.979298,47.312377],[8.980031,47.309409],[8.979814,47.305911],[8.96464,47.303006],[8.95826,47.304867],[8.956529,47.304229],[8.936539,47.30388],[8.912422,47.312398],[8.892142,47.319019],[8.891191,47.323427],[8.886772,47.328572],[8.890421,47.341663],[8.8918,47.344136],[8.894033,47.345412],[8.90355,47.345824],[8.919768,47.350447],[8.933733,47.364181],[8.938609,47.364582],[8.954831,47.364141],[8.956216,47.360796],[8.95708,47.359832],[8.95815,47.35911],[8.958019,47.358603],[8.959493,47.357685],[8.960027,47.35631],[8.960628,47.355772],[8.959958,47.354305],[8.96024,47.353886]]]],"type":"MultiPolygon"},"id":173,"properties":{"name":"Zone 173","weight":1,"zone_id":173},"type":"Feature"},{"geometry":{"coordinates":[[[[8.836986,47.244884],[8.846507,47.243045],[8.849474,47.243316],[8.854745,47.24161],[8.85862,47.241818],[8.867229,47.241613],[8.86838,47.242101],[8.874067,47.24319],[8.874335,47.242888],[8.87428,47.242306],[8.875274,47.241497],[8.875471,47.240955],[8.876708,47.241343],[8.877245,47.241881],[8.878987,47.242087],[8.881136,47.242748],[8.886024,47.242002],[8.887138,47.242374],[8.887875,47.241568],[8.89017,47.241842],[8.890949,47.241174],[8.892112,47.240739],[8.897106,47.239692],[8.901107,47.238465],[8.890896,47.230011],[8.863833,47.21943],[8.860178,47.221693],[8.858763,47.222266],[8.856278,47.22222],[8.851328,47.221408],[8.849404,47.221734],[8.847866,47.218593],[8.849005,47.21848],[8.849393,47.21771],[8.848863,47.217189],[8.847644,47.21664],[8.846115,47.216528],[8.844033,47.215621],[8.842846,47.215837],[8.842086,47.216462],[8.836734,47.216533],[8.83117,47.216949],[8.828597,47.218447],[8.826383,47.220296],[8.825797,47.221238],[8.824889,47.222024],[8.822259,47.22231],[8.816209,47.222461],[8.811647,47.221208],[8.805439,47.216307],[8.80568,47.214316],[8.803316,47.213513],[8.802381,47.21287],[8.799709,47.211727],[8.798349,47.210778],[8.797245,47.20825],[8.797345,47.207944],[8.796421,47.207954],[8.792335,47.209379],[8.792914,47.210883],[8.793189,47.213052],[8.796752,47.215217],[8.800368,47.21562],[8.803572,47.218089],[8.803859,47.218594],[8.806304,47.218565],[8.813532,47.224137],[8.813408,47.225588],[8.812881,47.22559],[8.812871,47.225756],[8.813392,47.225778],[8.813353,47.226232],[8.811286,47.226903],[8.816863,47.22827],[8.81799,47.229444],[8.817825,47.231206],[8.818082,47.232775],[8.817343,47.234823],[8.817899,47.23491],[8.817307,47.234955],[8.81668,47.236291],[8.814502,47.236885],[8.810985,47.236601],[8.810461,47.237095],[8.810325,47.236819],[8.810241,47.237278],[8.808574,47.237389],[8.808011,47.237801],[8.805135,47.237368],[8.80394,47.237733],[8.800498,47.23783],[8.801168,47.238591],[8.801089,47.238819],[8.80032,47.239003],[8.800573,47.239357],[8.799949,47.239369],[8.800278,47.239551],[8.799803,47.239762],[8.796502,47.245822],[8.803031,47.250672],[8.807053,47.25205],[8.815611,47.252655],[8.820177,47.25422],[8.827868,47.251478],[8.829138,47.248844],[8.836986,47.244884]]]],"type":"MultiPolygon"},"id":180,"properties":{"name":"Zone 180","weight":1,"zone_id":180},"type":"Feature"},{"geometry":{"coordinates":[[[[8.792335,47.209379],[8.796421,47.207954],[8.797345,47.207944],[8.798497,47.205106],[8.801725,47.203684],[8.80348,47.202399],[8.804653,47.202115],[8.804161,47.200196],[8.804617,47.199966],[8.804925,47.19909],[8.80601,47.19869],[8.806194,47.19813],[8.802211,47.197233],[8.801828,47.196716],[8.801976,47.195796],[8.800885,47.194839],[8.739729,47.177262],[8.713942,47.171838],[8.692975,47.17064],[8.689187,47.171092],[8.687676,47.178951],[8.692879,47.182971],[8.693949,47.194269],[8.698055,47.197618],[8.697724,47.198454],[8.704199,47.203209],[8.706374,47.203482],[8.707418,47.201617],[8.709325,47.201748],[8.709728,47.201576],[8.711183,47.202837],[8.71326,47.203184],[8.714419,47.20193],[8.715335,47.201545],[8.719985,47.200696],[8.722466,47.200585],[8.723245,47.201025],[8.72383,47.201912],[8.724517,47.201849],[8.724729,47.201493],[8.729601,47.202848],[8.730552,47.20355],[8.730291,47.203986],[8.731044,47.204815],[8.733435,47.205355],[8.734372,47.206182],[8.734868,47.206693],[8.735417,47.208415],[8.737542,47.209015],[8.737805,47.208704],[8.737596,47.20826],[8.738655,47.208377],[8.739811,47.209236],[8.742165,47.209549],[8.743126,47.207872],[8.739263,47.207606],[8.73829,47.206676],[8.736958,47.206276],[8.738093,47.204963],[8.740067,47.205599],[8.741863,47.205653],[8.742579,47.20631],[8.755261,47.20808],[8.761948,47.206687],[8.76348,47.20696],[8.768924,47.206457],[8.771693,47.20553],[8.775886,47.206856],[8.774917,47.208316],[8.775241,47.208431],[8.776415,47.207011],[8.777783,47.207411],[8.781137,47.207268],[8.790382,47.206366],[8.791523,47.20727],[8.792335,47.209379]]]],"type":"MultiPolygon"},"id":181,"properties":{"name":"Zone 181","weight":1,"zone_id":181},"type":"Feature"},{"geometry":{"coordinates":[[[[8.860178,47.221693],[8.863833,47.21943],[8.859062,47.204216],[8.856996,47.20391],[8.857085,47.202656],[8.856677,47.202163],[8.856208,47.202202],[8.854539,47.203543],[8.852386,47.203243],[8.851081,47.202592],[8.851195,47.201516],[8.852653,47.200588],[8.852278,47.199425],[8.852419,47.198006],[8.850979,47.195573],[8.850507,47.193725],[8.849514,47.192671],[8.840332,47.191462],[8.835701,47.193173],[8.831882,47.195243],[8.830894,47.195297],[8.827302,47.194323],[8.824752,47.194323],[8.822327,47.195568],[8.821164,47.19527],[8.820623,47.195949],[8.818024,47.195149],[8.816597,47.195962],[8.815336,47.197596],[8.815526,47.199721],[8.814871,47.200585],[8.812445,47.200903],[8.809276,47.201937],[8.807054,47.201534],[8.80348,47.202399],[8.801725,47.203684],[8.798497,47.205106],[8.797245,47.20825],[8.798349,47.210778],[8.799709,47.211727],[8.802381,47.21287],[8.803316,47.213513],[8.80568,47.214316],[8.805439,47.216307],[8.811647,47.221208],[8.816209,47.222461],[8.822259,47.22231],[8.824889,47.222024],[8.825797,47.221238],[8.826383,47.220296],[8.828597,47.218447],[8.83117,47.216949],[8.836734,47.216533],[8.842086,47.216462],[8.842846,47.215837],[8.844033,47.215621],[8.846115,47.216528],[8.847644,47.21664],[8.848863,47.217189],[8.849393,47.21771],[8.849005,47.21848],[8.847866,47.218593],[8.849404,47.221734],[8.851328,47.221408],[8.856278,47.22222],[8.858763,47.222266],[8.860178,47.221693]]]],"type":"MultiPolygon"},"id":182,"properties":{"name":"Zone 182","weight":1,"zone_id":182},"type":"Feature"},{"geometry":{"coordinates":[[[[8.863833,47.21943],[8.866322,47.218309],[8.869112,47.218523],[8.872255,47.217888],[8.8742,47.217836],[8.876188,47.217348],[8.876249,47.216216],[8.877281,47.21576],[8.882138,47.216149],[8.887442,47.21786],[8.894936,47.219138],[8.895959,47.219951],[8.899975,47.220988],[8.904764,47.221285],[8.906146,47.221569],[8.906678,47.222158],[8.908372,47.22292],[8.909403,47.222418],[8.910227,47.222513],[8.911332,47.223177],[8.915294,47.22323],[8.917116,47.223704],[8.915677,47.224747],[8.918538,47.225897],[8.932117,47.22589],[8.941648,47.224927],[8.946143,47.224802],[8.946684,47.224168],[8.946611,47.223106],[8.945731,47.221994],[8.940782,47.221288],[8.94157,47.218857],[8.941611,47.21761],[8.944945,47.217326],[8.94023,47.214971],[8.936779,47.213679],[8.934102,47.21326],[8.933064,47.212584],[8.930217,47.212029],[8.920192,47.209268],[8.911882,47.207462],[8.908723,47.207241],[8.900544,47.205159],[8.894978,47.204561],[8.893021,47.204831],[8.892283,47.205684],[8.890724,47.20579],[8.889482,47.204899],[8.888633,47.20525],[8.887746,47.206196],[8.887542,47.208564],[8.885356,47.208356],[8.882391,47.206898],[8.881348,47.206793],[8.880697,47.207782],[8.878592,47.207448],[8.877087,47.206856],[8.874143,47.206449],[8.871008,47.20657],[8.868567,47.206169],[8.866405,47.205469],[8.863062,47.20526],[8.860452,47.204758],[8.859062,47.204216],[8.863833,47.21943]]]],"type":"MultiPolygon"},"id":183,"properties":{"name":"Zone 183","weight":1,"zone_id":183},"type":"Feature"},{"geometry":{"coordinates":[[[[8.372984,47.424393],[8.384214,47.419357],[8.379941,47.418218],[8.378445,47.416828],[8.385614,47.410238],[8.382382,47.408396],[8.374984,47.407604],[8.374743,47.399733],[8.377638,47.398714],[8.383222,47.398109],[8.386155,47.396527],[8.390067,47.397393],[8.395665,47.396519],[8.391253,47.386955],[8.386153,47.381514],[8.383884,47.376585],[8.382845,47.376247],[8.380309,47.377182],[8.378785,47.377065],[8.377346,47.378016],[8.376649,47.378164],[8.375908,47.378307],[8.37449,47.377892],[8.372822,47.386552],[8.370309,47.390445],[8.357267,47.397236],[8.356746,47.403566],[8.362556,47.407415],[8.364813,47.416697],[8.364712,47.418173],[8.366614,47.418815],[8.367243,47.420486],[8.361272,47.420457],[8.366603,47.423523],[8.372984,47.424393]]]],"type":"MultiPolygon"},"id":184,"properties":{"name":"Zone 184","weight":1,"zone_id":184},"type":"Feature"}],"type":"FeatureCollection"}